{"type": "FeatureCollection", "features": [{"type": "Feature", "geometry": {"type": "Point", "coordinates": [104.821023, -3.011009]}, "properties": {"tahun": "2022", "periode": "2", "nama_propinsi": "Sumatera Selatan", "nama_dati2": "Kota Palembang", "nama": "Bank Sampah Unit Patraganik", "jenis": "BSU", "wilayah": "Non Ibukota Kabupaten", "status": "A", "kelola": "Masyarakat", "sampah_diterima_tahun": "61800.00000", "jml_kelola_tahun": "61800.00000", "bb_pt_tahun": "0.00000", "bb_kompos_tahun": "0.00000", "bb_du_tahun": "61800.00000", "bb_up_tahun": "0.00000", "alamat": "Jl.Selatan Pulo Layang No.1 ", "kelurahan": "Talang Putri", "kecamatan": "Plaju"}}, {"type": "Feature", "geometry": {"type": "Point", "coordinates": [104.690268, -2.932987]}, "properties": {"tahun": "2022", "periode": "2", "nama_propinsi": "Sumatera Selatan", "nama_dati2": "Kota Palembang", "nama": "Bank Sampah Unit Sakura", "jenis": "BSU", "wilayah": "Non Ibukota Kabupaten", "status": "A", "kelola": "Masyarakat", "sampah_diterima_tahun": "126180.00000", "jml_kelola_tahun": "126180.00000", "bb_pt_tahun": "0.00000", "bb_kompos_tahun": "0.00000", "bb_du_tahun": "126180.00000", "bb_up_tahun": "0.00000", "alamat": "Perumnas Talang Kelapa  ", "kelurahan": "Talang kelapa", "kecamatan": "Alang-Alang Lebar "}}, {"type": "Feature", "geometry": {"type": "Point", "coordinates": [104.735995, -2.986076]}, "properties": {"tahun": "2022", "periode": "2", "nama_propinsi": "Sumatera Selatan", "nama_dati2": "Kota Palembang", "nama": "Bank Sampah Unit Kartini", "jenis": "BSU", "wilayah": "Non Ibukota Kabupaten", "status": "A", "kelola": "Masyarakat", "sampah_diterima_tahun": "120180.00000", "jml_kelola_tahun": "120180.00000", "bb_pt_tahun": "0.00000", "bb_kompos_tahun": "0.00000", "bb_du_tahun": "120180.00000", "bb_up_tahun": "0.00000", "alamat": "Jl. Puncak Sekuning", "kelurahan": "Lorok Pakjo", "kecamatan": "Ilir Barat I"}}, {"type": "Feature", "geometry": {"type": "Point", "coordinates": [104.790952, -2.95357]}, "properties": {"tahun": "2022", "periode": "2", "nama_propinsi": "Sumatera Selatan", "nama_dati2": "Kota Palembang", "nama": "Bank Sampah Unit Sriwijaya Bersatu", "jenis": "BSU", "wilayah": "Non Ibukota Kabupaten", "status": "A", "kelola": "Masyarakat", "sampah_diterima_tahun": "144000.00000", "jml_kelola_tahun": "144000.00000", "bb_pt_tahun": "0.00000", "bb_kompos_tahun": "0.00000", "bb_du_tahun": "144000.00000", "bb_up_tahun": "0.00000", "alamat": "Jl.Urip Sumoharjo ", "kelurahan": "Kalidoni", "kecamatan": "Kalidoni"}}, {"type": "Feature", "geometry": {"type": "Point", "coordinates": [104.8322478, -3.0234293]}, "properties": {"tahun": "2022", "periode": "2", "nama_propinsi": "Sumatera Selatan", "nama_dati2": "Kota Palembang", "nama": "Bank Sampah Unit Patratura", "jenis": "BSU", "wilayah": "Non Ibukota Kabupaten", "status": "A", "kelola": "Masyarakat", "sampah_diterima_tahun": "93600.00000", "jml_kelola_tahun": "93600.00000", "bb_pt_tahun": "0.00000", "bb_kompos_tahun": "0.00000", "bb_du_tahun": "93600.00000", "bb_up_tahun": "0.00000", "alamat": "Jl.Krobani Kadir", "kelurahan": "Talang Putri ", "kecamatan": "Plaju"}}, {"type": "Feature", "geometry": {"type": "Point", "coordinates": [104.7030197, -2.9188821]}, "properties": {"tahun": "2022", "periode": "2", "nama_propinsi": "Sumatera Selatan", "nama_dati2": "Kota Palembang", "nama": "Bank Sampah Unit Bahagia Mandiri", "jenis": "BSU", "wilayah": "Non Ibukota Kabupaten", "status": "A", "kelola": "Masyarakat", "sampah_diterima_tahun": "54000.00000", "jml_kelola_tahun": "50400.00000", "bb_pt_tahun": "0.00000", "bb_kompos_tahun": "0.00000", "bb_du_tahun": "50400.00000", "bb_up_tahun": "0.00000", "alamat": "Komplek Griya Bahagia ", "kelurahan": "Alang Lebar-Alang Lebar", "kecamatan": "Alang Lebar-Alang Lebar"}}, {"type": "Feature", "geometry": {"type": "Point", "coordinates": [104.761842, -2.934164]}, "properties": {"tahun": "2022", "periode": "2", "nama_propinsi": "Sumatera Selatan", "nama_dati2": "Kota Palembang", "nama": "Bank Sampah Unit Hikmah Sejahtera", "jenis": "BSU", "wilayah": "Non Ibukota Kabupaten", "status": "A", "kelola": "Masyarakat", "sampah_diterima_tahun": "72120.00000", "jml_kelola_tahun": "72120.00000", "bb_pt_tahun": "0.00000", "bb_kompos_tahun": "0.00000", "bb_du_tahun": "72120.00000", "bb_up_tahun": "0.00000", "alamat": "Jl.Hikmah Sukorejo Rt. 11/ Rw.03", "kelurahan": "8 Ilir", "kecamatan": "Ilir Timur II"}}, {"type": "Feature", "geometry": {"type": "Point", "coordinates": [104.7509862, -2.9284298]}, "properties": {"tahun": "2022", "periode": "2", "nama_propinsi": "Sumatera Selatan", "nama_dati2": "Kota Palembang", "nama": "Bank Sampah Unit Pesona / SEHATI (TPA) ", "jenis": "BSU", "wilayah": "Ibukota kabupaten/Kota", "status": "A", "kelola": "Masyarakat", "sampah_diterima_tahun": "156240.00000", "jml_kelola_tahun": "156240.00000", "bb_pt_tahun": "0.00000", "bb_kompos_tahun": "0.00000", "bb_du_tahun": "156240.00000", "bb_up_tahun": "0.00000", "alamat": "Jl. Sukawinatan", "kelurahan": "Sukajaya", "kecamatan": "Sukarami"}}, {"type": "Feature", "geometry": {"type": "Point", "coordinates": [104.7602464, -3.0132805]}, "properties": {"tahun": "2022", "periode": "2", "nama_propinsi": "Sumatera Selatan", "nama_dati2": "Kota Palembang", "nama": "Bank Sampah Unit Junjung Biru", "jenis": "BSU", "wilayah": "Non Ibukota Kabupaten", "status": "A", "kelola": "Masyarakat", "sampah_diterima_tahun": "54000.00000", "jml_kelola_tahun": "54000.00000", "bb_pt_tahun": "0.00000", "bb_kompos_tahun": "0.00000", "bb_du_tahun": "54000.00000", "bb_up_tahun": "0.00000", "alamat": "Jl. Demak No.3 Rt. 20", "kelurahan": "Tuan Ketang", "kecamatan": "Seberang Ulu I"}}, {"type": "Feature", "geometry": {"type": "Point", "coordinates": [104.8185403, -2.9980235]}, "properties": {"tahun": "2022", "periode": "2", "nama_propinsi": "Sumatera Selatan", "nama_dati2": "Kota Palembang", "nama": "Bank Sampah Unit Bersih Sehat Mulia", "jenis": "BSU", "wilayah": "Non Ibukota Kabupaten", "status": "A", "kelola": "Masyarakat", "sampah_diterima_tahun": "54000.00000", "jml_kelola_tahun": "54000.00000", "bb_pt_tahun": "0.00000", "bb_kompos_tahun": "0.00000", "bb_du_tahun": "54000.00000", "bb_up_tahun": "0.00000", "alamat": "Jl.Di Panjaitan Lr.  Sunai ", "kelurahan": "Plaju ", "kecamatan": "Plaju "}}, {"type": "Feature", "geometry": {"type": "Point", "coordinates": [104.7208695, -3.0072677]}, "properties": {"tahun": "2022", "periode": "2", "nama_propinsi": "Sumatera Selatan", "nama_dati2": "Kota Palembang", "nama": "Bank Sampah Unit Sinar Fajar", "jenis": "BSU", "wilayah": "Non Ibukota Kabupaten", "status": "A", "kelola": "Masyarakat", "sampah_diterima_tahun": "54000.00000", "jml_kelola_tahun": "54000.00000", "bb_pt_tahun": "0.00000", "bb_kompos_tahun": "0.00000", "bb_du_tahun": "54000.00000", "bb_up_tahun": "0.00000", "alamat": "Jl. Tegal Binangun  Rt. 21 Rw. 07", "kelurahan": "Plaju Darat", "kecamatan": "Plaju"}}, {"type": "Feature", "geometry": {"type": "Point", "coordinates": [104.7754307, -2.9760735]}, "properties": {"tahun": "2022", "periode": "2", "nama_propinsi": "Sumatera Selatan", "nama_dati2": "Kota Palembang", "nama": "Bank Sampah Unit Dahlia", "jenis": "BSU", "wilayah": "Non Ibukota Kabupaten", "status": "A", "kelola": "Masyarakat", "sampah_diterima_tahun": "43200.00000", "jml_kelola_tahun": "43200.00000", "bb_pt_tahun": "0.00000", "bb_kompos_tahun": "0.00000", "bb_du_tahun": "43200.00000", "bb_up_tahun": "0.00000", "alamat": "Jl. Wana Aasri No. 36 Rt.06 Rw.02", "kelurahan": "Kalidoni", "kecamatan": "Kalidoni"}}, {"type": "Feature", "geometry": {"type": "Point", "coordinates": [104.7872419, -2.9618429]}, "properties": {"tahun": "2022", "periode": "2", "nama_propinsi": "Sumatera Selatan", "nama_dati2": "Kota Palembang", "nama": "Bank Sampah Unit Kabumen Gemilang Sejahtera", "jenis": "BSU", "wilayah": "Non Ibukota Kabupaten", "status": "A", "kelola": "Masyarakat", "sampah_diterima_tahun": "64860.00000", "jml_kelola_tahun": "64860.00000", "bb_pt_tahun": "0.00000", "bb_kompos_tahun": "0.00000", "bb_du_tahun": "64860.00000", "bb_up_tahun": "0.00000", "alamat": "Jl. Sersan Zaini Rt. 27", "kelurahan": "2 Ilir", "kecamatan": "Ilir Timur II"}}, {"type": "Feature", "geometry": {"type": "Point", "coordinates": [104.8109606, -3.0031148]}, "properties": {"tahun": "2022", "periode": "2", "nama_propinsi": "Sumatera Selatan", "nama_dati2": "Kota Palembang", "nama": "Bank Sampah Unit Bekal", "jenis": "BSU", "wilayah": "Non Ibukota Kabupaten", "status": "A", "kelola": "Masyarakat", "sampah_diterima_tahun": "61200.00000", "jml_kelola_tahun": "61200.00000", "bb_pt_tahun": "0.00000", "bb_kompos_tahun": "0.00000", "bb_du_tahun": "61200.00000", "bb_up_tahun": "0.00000", "alamat": "Jl. D.I Panjaitan Lr. Kauman ", "kelurahan": "Plaju Ulu", "kecamatan": "Plaju"}}, {"type": "Feature", "geometry": {"type": "Point", "coordinates": [104.7347047, -2.9112307]}, "properties": {"tahun": "2022", "periode": "2", "nama_propinsi": "Sumatera Selatan", "nama_dati2": "Kota Palembang", "nama": "Bank Sampah Unit Gotong Royong", "jenis": "BSU", "wilayah": "Non Ibukota Kabupaten", "status": "A", "kelola": "Masyarakat", "sampah_diterima_tahun": "75600.00000", "jml_kelola_tahun": "75600.00000", "bb_pt_tahun": "0.00000", "bb_kompos_tahun": "0.00000", "bb_du_tahun": "75600.00000", "bb_up_tahun": "0.00000", "alamat": "Jl. Gotong Royong Griya Pahala  Bangun Indah  Rt.98 Rw. 08", "kelurahan": "Sukajaya", "kecamatan": "Sukarami"}}, {"type": "Feature", "geometry": {"type": "Point", "coordinates": [104.7090381, -2.940237]}, "properties": {"tahun": "2022", "periode": "2", "nama_propinsi": "Sumatera Selatan", "nama_dati2": "Kota Palembang", "nama": "Bank Sampah Unit Pelangi", "jenis": "BSU", "wilayah": "Non Ibukota Kabupaten", "status": "A", "kelola": "Masyarakat", "sampah_diterima_tahun": "79200.00000", "jml_kelola_tahun": "39600.00000", "bb_pt_tahun": "0.00000", "bb_kompos_tahun": "0.00000", "bb_du_tahun": "39600.00000", "bb_up_tahun": "0.00000", "alamat": "Jl.Gotong Royong Rt.06 Rw. 02", "kelurahan": "Sukodadi", "kecamatan": "Sukarami"}}, {"type": "Feature", "geometry": {"type": "Point", "coordinates": [104.739808, -2.9205368]}, "properties": {"tahun": "2022", "periode": "2", "nama_propinsi": "Sumatera Selatan", "nama_dati2": "Kota Palembang", "nama": "Bank Sampah Unit Serumpun Jaya", "jenis": "BSU", "wilayah": "Non Ibukota Kabupaten", "status": "A", "kelola": "Masyarakat", "sampah_diterima_tahun": "75600.00000", "jml_kelola_tahun": "75600.00000", "bb_pt_tahun": "0.00000", "bb_kompos_tahun": "0.00000", "bb_du_tahun": "75600.00000", "bb_up_tahun": "0.00000", "alamat": "Jl.Soak Permai Rt.42 Rw.08", "kelurahan": "Sukajaya", "kecamatan": "Sukarami"}}, {"type": "Feature", "geometry": {"type": "Point", "coordinates": [104.7924652, -2.9687978]}, "properties": {"tahun": "2022", "periode": "2", "nama_propinsi": "Sumatera Selatan", "nama_dati2": "Kota Palembang", "nama": "Bank Sampah Unit Hijau", "jenis": "BSU", "wilayah": "Ibukota kabupaten/Kota", "status": "A", "kelola": "Masyarakat", "sampah_diterima_tahun": "98400.00000", "jml_kelola_tahun": "98400.00000", "bb_pt_tahun": "0.00000", "bb_kompos_tahun": "0.00000", "bb_du_tahun": "98400.00000", "bb_up_tahun": "0.00000", "alamat": "Jl.Talang Jawa  ", "kelurahan": "Pulokerto", "kecamatan": "Gandus"}}, {"type": "Feature", "geometry": {"type": "Point", "coordinates": [104.7754307, -2.9760735]}, "properties": {"tahun": "2022", "periode": "2", "nama_propinsi": "Sumatera Selatan", "nama_dati2": "Kota Palembang", "nama": "Bank Sampah Unit Dimas", "jenis": "BSU", "wilayah": "Ibukota kabupaten/Kota", "status": "A", "kelola": "Masyarakat", "sampah_diterima_tahun": "45000.00000", "jml_kelola_tahun": "45000.00000", "bb_pt_tahun": "0.00000", "bb_kompos_tahun": "0.00000", "bb_du_tahun": "45000.00000", "bb_up_tahun": "0.00000", "alamat": "Jl.Demas  Rt.03 Rw.01", "kelurahan": "Srimuliya", "kecamatan": "Sematang Borang"}}, {"type": "Feature", "geometry": {"type": "Point", "coordinates": [104.751663, -2.966524]}, "properties": {"tahun": "2022", "periode": "2", "nama_propinsi": "Sumatera Selatan", "nama_dati2": "Kota Palembang", "nama": "Bank Sampah Unit Sejahtera", "jenis": "BSU", "wilayah": "Ibukota kabupaten/Kota", "status": "A", "kelola": "Masyarakat", "sampah_diterima_tahun": "75600.00000", "jml_kelola_tahun": "75600.00000", "bb_pt_tahun": "0.00000", "bb_kompos_tahun": "0.00000", "bb_du_tahun": "75600.00000", "bb_up_tahun": "0.00000", "alamat": "Jl. Dr muh Ali", "kelurahan": "Sekip Jaya", "kecamatan": "Kemuning"}}, {"type": "Feature", "geometry": {"type": "Point", "coordinates": [104.8104424, -2.9659057]}, "properties": {"tahun": "2022", "periode": "2", "nama_propinsi": "Sumatera Selatan", "nama_dati2": "Kota Palembang", "nama": "Bank Sampah Unit Mawar", "jenis": "BSU", "wilayah": "Non Ibukota Kabupaten", "status": "A", "kelola": "Masyarakat", "sampah_diterima_tahun": "64800.00000", "jml_kelola_tahun": "64800.00000", "bb_pt_tahun": "0.00000", "bb_kompos_tahun": "0.00000", "bb_du_tahun": "64800.00000", "bb_up_tahun": "0.00000", "alamat": "Perumahan Gumay Asri", "kelurahan": "Sei Selayur", "kecamatan": "Kalidoni"}}, {"type": "Feature", "geometry": {"type": "Point", "coordinates": [104.687936, -2.8852569]}, "properties": {"tahun": "2022", "periode": "2", "nama_propinsi": "Sumatera Selatan", "nama_dati2": "Kota Palembang", "nama": "Bank Sampah Unit Serumpun", "jenis": "BSU", "wilayah": "Non Ibukota Kabupaten", "status": "A", "kelola": "Masyarakat", "sampah_diterima_tahun": "75600.00000", "jml_kelola_tahun": "75600.00000", "bb_pt_tahun": "0.00000", "bb_kompos_tahun": "0.00000", "bb_du_tahun": "75600.00000", "bb_up_tahun": "0.00000", "alamat": "Jl. Tiga Saudara ", "kelurahan": "Talang Betutu", "kecamatan": "Sukarami"}}, {"type": "Feature", "geometry": {"type": "Point", "coordinates": [104.7112631, -2.9430332]}, "properties": {"tahun": "2022", "periode": "2", "nama_propinsi": "Sumatera Selatan", "nama_dati2": "Kota Palembang", "nama": "Bank Sampah Unit Ceria", "jenis": "BSU", "wilayah": "Non Ibukota Kabupaten", "status": "A", "kelola": "Masyarakat", "sampah_diterima_tahun": "182520.00000", "jml_kelola_tahun": "178356.00000", "bb_pt_tahun": "53112.00000", "bb_kompos_tahun": "5520.00000", "bb_du_tahun": "119724.00000", "bb_up_tahun": "0.00000", "alamat": "Bougenville", "kelurahan": "karya Baru", "kecamatan": "Alang-Alang Lebar"}}, {"type": "Feature", "geometry": {"type": "Point", "coordinates": [104.7914767, -2.9141196]}, "properties": {"tahun": "2022", "periode": "2", "nama_propinsi": "Sumatera Selatan", "nama_dati2": "Kota Palembang", "nama": "Bank Sampah Unit Melati Sako Baru", "jenis": "BSU", "wilayah": "Non Ibukota Kabupaten", "status": "A", "kelola": "Masyarakat", "sampah_diterima_tahun": "50400.00000", "jml_kelola_tahun": "50400.00000", "bb_pt_tahun": "0.00000", "bb_kompos_tahun": "0.00000", "bb_du_tahun": "50400.00000", "bb_up_tahun": "0.00000", "alamat": "Jl.Sako Baru", "kelurahan": "Sako Baru", "kecamatan": "Sako"}}, {"type": "Feature", "geometry": {"type": "Point", "coordinates": [104.706397, -2.96827]}, "properties": {"tahun": "2022", "periode": "2", "nama_propinsi": "Sumatera Selatan", "nama_dati2": "Kota Palembang", "nama": "Bank Sampah Unit Eco Green House ", "jenis": "BSU", "wilayah": "Non Ibukota Kabupaten", "status": "A", "kelola": "Masyarakat", "sampah_diterima_tahun": "43200.00000", "jml_kelola_tahun": "43200.00000", "bb_pt_tahun": "0.00000", "bb_kompos_tahun": "43200.00000", "bb_du_tahun": "0.00000", "bb_up_tahun": "0.00000", "alamat": "Jl. Lubuk Bakung  06/09", "kelurahan": "Siring Agung ", "kecamatan": "Alang-Alang Lebar "}}, {"type": "Feature", "geometry": {"type": "Point", "coordinates": [104.7265392, -2.9506574]}, "properties": {"tahun": "2022", "periode": "2", "nama_propinsi": "Sumatera Selatan", "nama_dati2": "Kota Palembang", "nama": "Bank Sampah Dinas Pendidikan Kota Palembang", "jenis": "BSU", "wilayah": "Non Ibukota Kabupaten", "status": "A", "kelola": "Masyarakat", "sampah_diterima_tahun": "218973.60000", "jml_kelola_tahun": "218973.60000", "bb_pt_tahun": "90720.00000", "bb_kompos_tahun": "0.00000", "bb_du_tahun": "128253.60000", "bb_up_tahun": "0.00000", "alamat": "Dinas Pendidikan", "kelurahan": null, "kecamatan": null}}, {"type": "Feature", "geometry": {"type": "Point", "coordinates": [104.7087246, -2.979105]}, "properties": {"tahun": "2022", "periode": "2", "nama_propinsi": "Sumatera Selatan", "nama_dati2": "Kota Palembang", "nama": "Bank Sampah Ittifaq Tanjung Barangan", "jenis": "BSU", "wilayah": "Non Ibukota Kabupaten", "status": "A", "kelola": "Masyarakat", "sampah_diterima_tahun": "39600.00000", "jml_kelola_tahun": "39600.00000", "bb_pt_tahun": "0.00000", "bb_kompos_tahun": "18000.00000", "bb_du_tahun": "21600.00000", "bb_up_tahun": "0.00000", "alamat": "Tanjung Barangan", "kelurahan": null, "kecamatan": null}}, {"type": "Feature", "geometry": {"type": "Point", "coordinates": [104.7576246, -2.9880387]}, "properties": {"tahun": "2022", "periode": "2", "nama_propinsi": "Sumatera Selatan", "nama_dati2": "Kota Palembang", "nama": "Bank Sampah Kenanga", "jenis": "BSU", "wilayah": "Non Ibukota Kabupaten", "status": "A", "kelola": "Masyarakat", "sampah_diterima_tahun": "21024.00000", "jml_kelola_tahun": "21024.00000", "bb_pt_tahun": "0.00000", "bb_kompos_tahun": "0.00000", "bb_du_tahun": "21024.00000", "bb_up_tahun": "0.00000", "alamat": "Jl. Paqih Jalaluddin No. 163 RT. 14 RW. 04", "kelurahan": null, "kecamatan": null}}, {"type": "Feature", "geometry": {"type": "Point", "coordinates": [104.8216486, -2.9815518]}, "properties": {"tahun": "2022", "periode": "2", "nama_propinsi": "Sumatera Selatan", "nama_dati2": "Kota Palembang", "nama": "Bank Sampah Pulau Kemaro ", "jenis": "BSU", "wilayah": "Non Ibukota Kabupaten", "status": "A", "kelola": "Masyarakat", "sampah_diterima_tahun": "24840.00000", "jml_kelola_tahun": "24840.00000", "bb_pt_tahun": "0.00000", "bb_kompos_tahun": "0.00000", "bb_du_tahun": "16800.00000", "bb_up_tahun": "8040.00000", "alamat": "RW.03 Kelurahan Satu Ilir ", "kelurahan": null, "kecamatan": null}}, {"type": "Feature", "geometry": {"type": "Point", "coordinates": [104.7471416, -2.1980428]}, "properties": {"tahun": "2022", "periode": "2", "nama_propinsi": "Sumatera Selatan", "nama_dati2": "Kota Palembang", "nama": "Bank Sampah Rumah Limas", "jenis": "BSU", "wilayah": "Ibukota kabupaten/Kota", "status": "A", "kelola": "Masyarakat", "sampah_diterima_tahun": "19198.80000", "jml_kelola_tahun": "19198.80000", "bb_pt_tahun": "0.00000", "bb_kompos_tahun": "0.00000", "bb_du_tahun": "19198.80000", "bb_up_tahun": "0.00000", "alamat": "Jl. Radial ", "kelurahan": null, "kecamatan": null}}, {"type": "Feature", "geometry": {"type": "Point", "coordinates": [104.729786, -2.9336851]}, "properties": {"tahun": "2022", "periode": "2", "nama_propinsi": "Sumatera Selatan", "nama_dati2": "Kota Palembang", "nama": "Bank Sampah Dinas Lingkungan Hidup", "jenis": "BSU", "wilayah": "Ibukota kabupaten/Kota", "status": "A", "kelola": "Pemda", "sampah_diterima_tahun": "96060.00000", "jml_kelola_tahun": "96060.00000", "bb_pt_tahun": "0.00000", "bb_kompos_tahun": "0.00000", "bb_du_tahun": "96060.00000", "bb_up_tahun": "0.00000", "alamat": "Jl. Sukarela No.129 A KM.7", "kelurahan": null, "kecamatan": null}}]}