{"type": "FeatureCollection", "features": [{"type": "Feature", "geometry": {"type": "Point", "coordinates": [104.749767, -2.913475]}, "properties": {"tahun": "2022", "periode": "2", "nama_propinsi": "Sumatera Selatan", "nama_dati2": "Kota Palembang", "nama": "TPA Sukawinatan", "jenis": "TPA Pemda (Non Regional)", "wilayah": null, "status": "A", "kelola": "Pemda DATI II", "sampah_diterima_tahun": "332185.31036", "jml_kelola_tahun": "330232.56040", "sampah_olah_organik_tahun": "273.75000", "sampah_olah_anorganik_tahun": null, "recovery_pemulung_tahun": "1678.99997", "energi_listrik": "0.60", "alamat": "Jl. Sukawinatan", "kelurahan": "sukajaya", "kecamatan": "Sukarame", "luas": "25.00", "sistem_operasional": "Control Landfill", "tgl_awal_operasi": "1 Maret 1994", "tgl_akhir_operasi": null, "luas_landfill_aktif": "80000.00", "pencatatan": "Kombinasi timbangan dengan Komputer (excel / tidak otomatis)", "jembatan_timbang": "Ada dan berfungsi dengan baik", "penutupan_sampah_zona_aktif": "Tujuh hari sekali atau Seminggu Sekali", "jml_sumur_pantau": "10", "ada_ipal": "Ada, Instalasi Pengolahan Air Lindi (IPAL) di TPA berupa kolam pengendapan dan proses biologi, masih berfungsi baik dan terawat.", "jml_uji_lindi": "4", "ada_drainase": "A", "pemanfaatan_methan_rev": "Untuk Energi Listrik", "jml_kk_manfaat_methan": null, "sumber_file": "TPA_atau_TPST"}}]}