{
"type": "FeatureCollection",
"name": "04_Komposting_Skala_RTRW",
"features": [
{ "type": "Feature", "properties": { "tahun": "2022", "periode": "2", "nama_propinsi": "Sumatera Selatan", "nama_dati2": "Kota Palembang", "nama": "Komposting Dimas", "jenis": "Komposting Skala Kecil atau RT/RW", "wilayah": null, "status": "A", "kelola": "Masyarakat", "sampah_diterima_tahun": "1.642500000", "jml_kelola_tahun": "1.642500000", "bb_pt_tahun": "0.000000000", "bb_kompos_tahun": "1.642500000", "bb_du_tahun": "0", "bb_up_tahun": "0", "bb_se_tahun": "0.000000000", "alamat": "Jl Lr. Dimas RT 03/01", "kelurahan": "Srimulya", "kecamatan": "Sematang Borang", "sumber_file": "Komposting_Skala_RTRW" }, "geometry": { "type": "Point", "coordinates": [ 104.801993, -2.945698 ] } },
{ "type": "Feature", "properties": { "tahun": "2022", "periode": "2", "nama_propinsi": "Sumatera Selatan", "nama_dati2": "Kota Palembang", "nama": "Komposting Kelurahan Talang Aman (Perumahan Tunas Jaya)", "jenis": "Komposting Skala Kecil atau RT/RW", "wilayah": "Non Ibukota Kabupaten", "status": "A", "kelola": "Masyarakat", "sampah_diterima_tahun": "1.460000000", "jml_kelola_tahun": "1.460000000", "bb_pt_tahun": "0.000000000", "bb_kompos_tahun": "1.460000000", "bb_du_tahun": "0", "bb_up_tahun": "0", "bb_se_tahun": "0.000000000", "alamat": "Jl. Sersan Sani RT 17/07", "kelurahan": "Talang Aman", "kecamatan": "Kemuning", "sumber_file": "Komposting_Skala_RTRW" }, "geometry": { "type": "Point", "coordinates": [ 104.750717, -2.951308 ] } },
{ "type": "Feature", "properties": { "tahun": "2022", "periode": "2", "nama_propinsi": "Sumatera Selatan", "nama_dati2": "Kota Palembang", "nama": "Komposting Pasar Kebon Semai ", "jenis": "Komposting Skala Kecil atau RT/RW", "wilayah": "Non Ibukota Kabupaten", "status": "A", "kelola": "Masyarakat", "sampah_diterima_tahun": "12.045000000", "jml_kelola_tahun": "12.045000000", "bb_pt_tahun": "7.300000000", "bb_kompos_tahun": "4.745000000", "bb_du_tahun": "0", "bb_up_tahun": "0", "bb_se_tahun": "0.000000000", "alamat": "Jl.Mayor Salim", "kelurahan": "Sekip Jaya", "kecamatan": "Kemuning", "sumber_file": "Komposting_Skala_RTRW" }, "geometry": { "type": "Point", "coordinates": [ 104.7579851, -2.9652569 ] } },
{ "type": "Feature", "properties": { "tahun": "2022", "periode": "2", "nama_propinsi": "Sumatera Selatan", "nama_dati2": "Kota Palembang", "nama": "Komposting Pasar Km 12", "jenis": "Komposting Skala Kecil atau RT/RW", "wilayah": "Non Ibukota Kabupaten", "status": "A", "kelola": "Masyarakat", "sampah_diterima_tahun": "37.595000000", "jml_kelola_tahun": "26.645000000", "bb_pt_tahun": "0.000000000", "bb_kompos_tahun": "21.900000000", "bb_du_tahun": "0", "bb_up_tahun": "0", "bb_se_tahun": "4.745000000", "alamat": "Jl. Bypass Alang-alang Lebar", "kelurahan": "Alang Lebar-Alang Lebar", "kecamatan": "Alang-Alang Lebar", "sumber_file": "Komposting_Skala_RTRW" }, "geometry": { "type": "Point", "coordinates": [ 104.6797159, -2.9151288 ] } },
{ "type": "Feature", "properties": { "tahun": "2022", "periode": "2", "nama_propinsi": "Sumatera Selatan", "nama_dati2": "Kota Palembang", "nama": "Komposting Pasar Lemabang ", "jenis": "Komposting Skala Kecil atau RT/RW", "wilayah": "Non Ibukota Kabupaten", "status": "A", "kelola": "Masyarakat", "sampah_diterima_tahun": "36.865000000", "jml_kelola_tahun": "36.865000000", "bb_pt_tahun": "0.000000000", "bb_kompos_tahun": "18.250000000", "bb_du_tahun": "0", "bb_up_tahun": "0", "bb_se_tahun": "18.615000000", "alamat": "Jl. Yos Sudarso", "kelurahan": "Tiga ilir", "kecamatan": "Ilir Timur Dua", "sumber_file": "Komposting_Skala_RTRW" }, "geometry": { "type": "Point", "coordinates": [ 104.7836129, -2.9727048 ] } },
{ "type": "Feature", "properties": { "tahun": "2022", "periode": "2", "nama_propinsi": "Sumatera Selatan", "nama_dati2": "Kota Palembang", "nama": "Komposting Pasar Modern plaju", "jenis": "Komposting Skala Kecil atau RT/RW", "wilayah": "Non Ibukota Kabupaten", "status": "A", "kelola": "Masyarakat", "sampah_diterima_tahun": "15.330000000", "jml_kelola_tahun": "15.330000000", "bb_pt_tahun": "9.125000000", "bb_kompos_tahun": "6.205000000", "bb_du_tahun": "0", "bb_up_tahun": "0", "bb_se_tahun": "0.000000000", "alamat": "Jl. Pintu Besi", "kelurahan": "Plaju Ilir", "kecamatan": "Plaju", "sumber_file": "Komposting_Skala_RTRW" }, "geometry": { "type": "Point", "coordinates": [ 104.8171633, -2.9978739 ] } },
{ "type": "Feature", "properties": { "tahun": "2022", "periode": "2", "nama_propinsi": "Sumatera Selatan", "nama_dati2": "Kota Palembang", "nama": "Komposting Pasar Padang Selasa", "jenis": "Komposting Skala Kecil atau RT/RW", "wilayah": "Non Ibukota Kabupaten", "status": "A", "kelola": "Masyarakat", "sampah_diterima_tahun": "21.900000000", "jml_kelola_tahun": "21.900000000", "bb_pt_tahun": "10.950000000", "bb_kompos_tahun": "10.950000000", "bb_du_tahun": "0", "bb_up_tahun": "0", "bb_se_tahun": "0.000000000", "alamat": "Jl.Putri Rambut Selako", "kelurahan": "Bukit Lama", "kecamatan": "Ilir Barat Satu", "sumber_file": "Komposting_Skala_RTRW" }, "geometry": { "type": "Point", "coordinates": [ 104.7350265, -2.9900456 ] } },
{ "type": "Feature", "properties": { "tahun": "2022", "periode": "2", "nama_propinsi": "Sumatera Selatan", "nama_dati2": "Kota Palembang", "nama": "Komposting Pasar Retail Jakabaring ", "jenis": "Komposting Skala Kecil atau RT/RW", "wilayah": "Non Ibukota Kabupaten", "status": "A", "kelola": "Masyarakat", "sampah_diterima_tahun": "36.500000000", "jml_kelola_tahun": "0.000000000", "bb_pt_tahun": "0.000000000", "bb_kompos_tahun": "0.000000000", "bb_du_tahun": "0", "bb_up_tahun": "0", "bb_se_tahun": "0.000000000", "alamat": "Jl.Pangeran Ratu", "kelurahan": "Lima Belas Ulu", "kecamatan": "Seberang Ulu Satu", "sumber_file": "Komposting_Skala_RTRW" }, "geometry": { "type": "Point", "coordinates": [ 104.7750265, -3.0253752 ] } },
{ "type": "Feature", "properties": { "tahun": "2022", "periode": "2", "nama_propinsi": "Sumatera Selatan", "nama_dati2": "Kota Palembang", "nama": "Komposting Perumahan Kedamaian", "jenis": "Komposting Skala Kecil atau RT/RW", "wilayah": "Non Ibukota Kabupaten", "status": "A", "kelola": "Masyarakat", "sampah_diterima_tahun": "1.095000000", "jml_kelola_tahun": "0.000000000", "bb_pt_tahun": "0.000000000", "bb_kompos_tahun": "0.000000000", "bb_du_tahun": "0", "bb_up_tahun": "0", "bb_se_tahun": "0.000000000", "alamat": "Jl. Gajah Raya RT 07/-", "kelurahan": "Bukit Sangkal", "kecamatan": "Kalidoni", "sumber_file": "Komposting_Skala_RTRW" }, "geometry": { "type": "Point", "coordinates": [ 104.774766, -2.948454 ] } },
{ "type": "Feature", "properties": { "tahun": "2022", "periode": "2", "nama_propinsi": "Sumatera Selatan", "nama_dati2": "Kota Palembang", "nama": "Komposting Perumahan Kenten Permai", "jenis": "Komposting Skala Kecil atau RT/RW", "wilayah": "Non Ibukota Kabupaten", "status": "A", "kelola": "Masyarakat", "sampah_diterima_tahun": "1.095000000", "jml_kelola_tahun": "0.000000000", "bb_pt_tahun": "0.000000000", "bb_kompos_tahun": "0.000000000", "bb_du_tahun": "0", "bb_up_tahun": "0", "bb_se_tahun": "0.000000000", "alamat": "Jl. Kenten Permai RT 20/04", "kelurahan": "Bukit Sangkal", "kecamatan": "Kalidoni", "sumber_file": "Komposting_Skala_RTRW" }, "geometry": { "type": "Point", "coordinates": [ 104.76931, -2.940014 ] } },
{ "type": "Feature", "properties": { "tahun": "2022", "periode": "2", "nama_propinsi": "Sumatera Selatan", "nama_dati2": "Kota Palembang", "nama": "Komposting Perumahan Maskerebet", "jenis": "Komposting Skala Kecil atau RT/RW", "wilayah": "Non Ibukota Kabupaten", "status": "A", "kelola": "Masyarakat", "sampah_diterima_tahun": "1.095000000", "jml_kelola_tahun": "1.095000000", "bb_pt_tahun": "0.000000000", "bb_kompos_tahun": "1.095000000", "bb_du_tahun": "0", "bb_up_tahun": "0", "bb_se_tahun": "0.000000000", "alamat": "Jl. Mahoni", "kelurahan": "Talang Kelapa", "kecamatan": "Alang-Alang Lebar", "sumber_file": "Komposting_Skala_RTRW" }, "geometry": { "type": "Point", "coordinates": [ 104.698573, -2.928897 ] } },
{ "type": "Feature", "properties": { "tahun": "2022", "periode": "2", "nama_propinsi": "Sumatera Selatan", "nama_dati2": "Kota Palembang", "nama": "Komposting Perumahan Pasang Surut", "jenis": "Komposting Skala Kecil atau RT/RW", "wilayah": "Non Ibukota Kabupaten", "status": "A", "kelola": "Masyarakat", "sampah_diterima_tahun": "1.095000000", "jml_kelola_tahun": "1.095000000", "bb_pt_tahun": "1.095000000", "bb_kompos_tahun": "0.000000000", "bb_du_tahun": "0", "bb_up_tahun": "0", "bb_se_tahun": "0.000000000", "alamat": "Jl. Baru Karang Anyar", "kelurahan": "Karang Anyar", "kecamatan": "Gandus", "sumber_file": "Komposting_Skala_RTRW" }, "geometry": { "type": "Point", "coordinates": [ 104.73707, -3.019237 ] } },
{ "type": "Feature", "properties": { "tahun": "2022", "periode": "2", "nama_propinsi": "Sumatera Selatan", "nama_dati2": "Kota Palembang", "nama": "Komposting Perumahan Patahilang", "jenis": "Komposting Skala Kecil atau RT/RW", "wilayah": "Non Ibukota Kabupaten", "status": "A", "kelola": "Masyarakat", "sampah_diterima_tahun": "1.095000000", "jml_kelola_tahun": "1.095000000", "bb_pt_tahun": "1.095000000", "bb_kompos_tahun": "0.000000000", "bb_du_tahun": "0", "bb_up_tahun": "0", "bb_se_tahun": "0.000000000", "alamat": "Jl. Patahilang RT 12/01", "kelurahan": "Sialang", "kecamatan": "Sako", "sumber_file": "Komposting_Skala_RTRW" }, "geometry": { "type": "Point", "coordinates": [ 104.779941, -2.927499 ] } },
{ "type": "Feature", "properties": { "tahun": "2022", "periode": "2", "nama_propinsi": "Sumatera Selatan", "nama_dati2": "Kota Palembang", "nama": "Komposting Perumahan Poligon I", "jenis": "Komposting Skala Kecil atau RT/RW", "wilayah": "Non Ibukota Kabupaten", "status": "A", "kelola": "LSM", "sampah_diterima_tahun": "4.562500000", "jml_kelola_tahun": "4.562500000", "bb_pt_tahun": "0.000000000", "bb_kompos_tahun": "4.562500000", "bb_du_tahun": "0", "bb_up_tahun": "0", "bb_se_tahun": "0.000000000", "alamat": "Jl. Raya Bukit Sejahtera", "kelurahan": "Bukit Lama", "kecamatan": "Ilir Barat I", "sumber_file": "Komposting_Skala_RTRW" }, "geometry": { "type": "Point", "coordinates": [ 104.7176469, -3.0077017 ] } },
{ "type": "Feature", "properties": { "tahun": "2022", "periode": "2", "nama_propinsi": "Sumatera Selatan", "nama_dati2": "Kota Palembang", "nama": "Komposting Perumahan Poligon II", "jenis": "Komposting Skala Kecil atau RT/RW", "wilayah": "Non Ibukota Kabupaten", "status": "A", "kelola": "Masyarakat", "sampah_diterima_tahun": "1.460000000", "jml_kelola_tahun": "1.460000000", "bb_pt_tahun": "0.000000000", "bb_kompos_tahun": "1.460000000", "bb_du_tahun": "0", "bb_up_tahun": "0", "bb_se_tahun": "0.000000000", "alamat": "Jl. Pala VIII", "kelurahan": "Bukit Lama", "kecamatan": "Ilir Barat I", "sumber_file": "Komposting_Skala_RTRW" }, "geometry": { "type": "Point", "coordinates": [ 104.7126875, -3.0055405 ] } },
{ "type": "Feature", "properties": { "tahun": "2022", "periode": "2", "nama_propinsi": "Sumatera Selatan", "nama_dati2": "Kota Palembang", "nama": "Komposting Perumahan Pusri Sako (Padi)", "jenis": "Komposting Skala Kecil atau RT/RW", "wilayah": "Non Ibukota Kabupaten", "status": "A", "kelola": "Masyarakat", "sampah_diterima_tahun": "1.095000000", "jml_kelola_tahun": "1.095000000", "bb_pt_tahun": "0.000000000", "bb_kompos_tahun": "0.000000000", "bb_du_tahun": "0", "bb_up_tahun": "0", "bb_se_tahun": "1.095000000", "alamat": "Jl. Padi Raya RT 02/12", "kelurahan": "Sako", "kecamatan": "Sako", "sumber_file": "Komposting_Skala_RTRW" }, "geometry": { "type": "Point", "coordinates": [ 104.780848, -2.924569 ] } },
{ "type": "Feature", "properties": { "tahun": "2022", "periode": "2", "nama_propinsi": "Sumatera Selatan", "nama_dati2": "Kota Palembang", "nama": "Komposting Perumahan Sukodadi", "jenis": "Komposting Skala Kecil atau RT/RW", "wilayah": "Non Ibukota Kabupaten", "status": "A", "kelola": "Masyarakat", "sampah_diterima_tahun": "1.825000000", "jml_kelola_tahun": "0.000000000", "bb_pt_tahun": "0.000000000", "bb_kompos_tahun": "0.000000000", "bb_du_tahun": "0", "bb_up_tahun": "0", "bb_se_tahun": "0.000000000", "alamat": "Jl. Durian 1 ", "kelurahan": "Sukodadi", "kecamatan": "Sukarami", "sumber_file": "Komposting_Skala_RTRW" }, "geometry": { "type": "Point", "coordinates": [ 104.697844, -2.911486 ] } },
{ "type": "Feature", "properties": { "tahun": "2022", "periode": "2", "nama_propinsi": "Sumatera Selatan", "nama_dati2": "Kota Palembang", "nama": "Komposting Perumahan Villa Azhar", "jenis": "Komposting Skala Kecil atau RT/RW", "wilayah": "Non Ibukota Kabupaten", "status": "A", "kelola": "Masyarakat", "sampah_diterima_tahun": "1.095000000", "jml_kelola_tahun": "0.000000000", "bb_pt_tahun": "0.000000000", "bb_kompos_tahun": "0.000000000", "bb_du_tahun": "0", "bb_up_tahun": "0", "bb_se_tahun": "0.000000000", "alamat": "Jl Perumahan Villa Azhar", "kelurahan": "16 Ulu", "kecamatan": "Seberang Ulu II", "sumber_file": "Komposting_Skala_RTRW" }, "geometry": { "type": "Point", "coordinates": [ 104.790285, -2.991539 ] } },
{ "type": "Feature", "properties": { "tahun": "2022", "periode": "2", "nama_propinsi": "Sumatera Selatan", "nama_dati2": "Kota Palembang", "nama": "Komposting Setunggal", "jenis": "Komposting Skala Kecil atau RT/RW", "wilayah": "Non Ibukota Kabupaten", "status": "A", "kelola": "Masyarakat", "sampah_diterima_tahun": "5.475000000", "jml_kelola_tahun": "0.000000000", "bb_pt_tahun": "0.000000000", "bb_kompos_tahun": "0.000000000", "bb_du_tahun": "0", "bb_up_tahun": "0", "bb_se_tahun": "0.000000000", "alamat": "Jl. Al Hikmah", "kelurahan": "8 Ilir", "kecamatan": "Ilir Timur II", "sumber_file": "Komposting_Skala_RTRW" }, "geometry": { "type": "Point", "coordinates": [ 104.761706, -2.93592 ] } },
{ "type": "Feature", "properties": { "tahun": "2022", "periode": "2", "nama_propinsi": "Sumatera Selatan", "nama_dati2": "Kota Palembang", "nama": "Komposting Taman POM IX", "jenis": "Komposting Skala Kecil atau RT/RW", "wilayah": "Non Ibukota Kabupaten", "status": "A", "kelola": "Masyarakat", "sampah_diterima_tahun": "1.825000000", "jml_kelola_tahun": "1.825000000", "bb_pt_tahun": "0.000000000", "bb_kompos_tahun": "1.825000000", "bb_du_tahun": "0", "bb_up_tahun": "0", "bb_se_tahun": "0.000000000", "alamat": "Jl. POM IX ", "kelurahan": "Lorok Pakjo", "kecamatan": "Ilir Barat I", "sumber_file": "Komposting_Skala_RTRW" }, "geometry": { "type": "Point", "coordinates": [ 104.739023, -2.977233 ] } },
{ "type": "Feature", "properties": { "tahun": "2022", "periode": "2", "nama_propinsi": "Sumatera Selatan", "nama_dati2": "Kota Palembang", "nama": "pasar palimo", "jenis": "Komposting Skala Kecil atau RT/RW", "wilayah": "Non Ibukota Kabupaten", "status": "A", "kelola": "LSM", "sampah_diterima_tahun": "17.155000000", "jml_kelola_tahun": "0.000000000", "bb_pt_tahun": "0.000000000", "bb_kompos_tahun": "0.000000000", "bb_du_tahun": "0", "bb_up_tahun": "0", "bb_se_tahun": "0.000000000", "alamat": "jl.Kol H.Burian", "kelurahan": "Ario Kemuning", "kecamatan": "Kemuning", "sumber_file": "Komposting_Skala_RTRW" }, "geometry": { "type": "Point", "coordinates": [ 104.7353824, -2.9535513 ] } }
]
}
