{"type": "FeatureCollection", "features": [{"type": "Feature", "geometry": {"type": "Point", "coordinates": [104.7238969, -2.9572526]}, "properties": {"tahun": "2022", "periode": "2", "nama_propinsi": "Sumatera Selatan", "nama_dati2": "Kota Palembang", "nama": "Biodigesster Gotong Royong", "jenis": "Biodigester", "wilayah": "Non Ibukota Kabupaten", "status": "A", "kelola": "LSM", "sampah_diterima_tahun": "182.500000000", "jml_kelola_tahun": "182.500000000", "bb_pt_tahun": "0.000000000", "bb_kompos_tahun": "182.500000000", "bb_du_tahun": "0", "bb_up_tahun": "0", "bb_se_tahun": "0.000000000", "alamat": "Jl. Gotong Royong", "kelurahan": "Sukodadi", "kecamatan": "Sukarami", "sumber_file": "Biodigester"}}, {"type": "Feature", "geometry": {"type": "Point", "coordinates": [104.6893106, -2.9491176]}, "properties": {"tahun": "2022", "periode": "2", "nama_propinsi": "Sumatera Selatan", "nama_dati2": "Kota Palembang", "nama": "Biodigesster Talang Kelapa", "jenis": "Biodigester", "wilayah": "Non Ibukota Kabupaten", "status": "A", "kelola": "LSM", "sampah_diterima_tahun": "0.365000000", "jml_kelola_tahun": "0.365000000", "bb_pt_tahun": "0.000000000", "bb_kompos_tahun": "0.365000000", "bb_du_tahun": "0", "bb_up_tahun": "0", "bb_se_tahun": "0.000000000", "alamat": "Jl. Talang Kelapa", "kelurahan": "Talang Kelapa", "kecamatan": "Alang - Alang Lebar", "sumber_file": "Biodigester"}}]}