{
"type": "FeatureCollection",
"name": "07_Pengelolaan_Sampah_Sektor_Informal_2022",
"features": [
{ "type": "Feature", "properties": { "tahun": "2022", "periode": "2", "nama_propinsi": "Sumatera Selatan", "nama_dati2": "Kota Palembang", "nama": "A. Kaswari", "jenis": "Pengepul", "wilayah": "Non Ibukota Kabupaten", "status": "A", "sampah_diterima_tahun": "295.650000", "jml_kelola_tahun": "276.487500000", "bb_du_tahun": "276.487500", "bb_up_tahun": "0.000000000", "alamat": "Jl. Rawasari Lr. Purnama", "kelurahan": "Bukit Sangkal", "kecamatan": "Kalidoni", "sumber_file": "Pengelolaan_Sampah_Sektor_Informal_2022" }, "geometry": { "type": "Point", "coordinates": [ 104.787451, -2.936247 ] } },
{ "type": "Feature", "properties": { "tahun": "2022", "periode": "2", "nama_propinsi": "Sumatera Selatan", "nama_dati2": "Kota Palembang", "nama": "A.Azis", "jenis": "Lapak", "wilayah": "Non Ibukota Kabupaten", "status": "A", "sampah_diterima_tahun": "330.325000", "jml_kelola_tahun": "330.142500000", "bb_du_tahun": "330.142500", "bb_up_tahun": "0.000000000", "alamat": "Tanjung Berange", "kelurahan": "Bukit Baru", "kecamatan": "Ilir Barat Satu", "sumber_file": "Pengelolaan_Sampah_Sektor_Informal_2022" }, "geometry": { "type": "Point", "coordinates": [ 104.707302, -2.98088 ] } },
{ "type": "Feature", "properties": { "tahun": "2022", "periode": "2", "nama_propinsi": "Sumatera Selatan", "nama_dati2": "Kota Palembang", "nama": "Albani", "jenis": "Pengepul", "wilayah": "Non Ibukota Kabupaten", "status": "A", "sampah_diterima_tahun": "169.725000", "jml_kelola_tahun": "169.725000000", "bb_du_tahun": "169.725000", "bb_up_tahun": "0.000000000", "alamat": "Jl. Hasanudin", "kelurahan": "Talang Kelapa", "kecamatan": "Alang-Alang Lebar", "sumber_file": "Pengelolaan_Sampah_Sektor_Informal_2022" }, "geometry": { "type": "Point", "coordinates": [ 104.695485, -2.933173 ] } },
{ "type": "Feature", "properties": { "tahun": "2022", "periode": "2", "nama_propinsi": "Sumatera Selatan", "nama_dati2": "Kota Palembang", "nama": "Anis", "jenis": "Pengepul", "wilayah": "Non Ibukota Kabupaten", "status": "A", "sampah_diterima_tahun": "133.225000", "jml_kelola_tahun": "132.860000000", "bb_du_tahun": "132.860000", "bb_up_tahun": "0.000000000", "alamat": "Jl. RW Mongonsidi", "kelurahan": "Kalidoni", "kecamatan": "Kalidoni", "sumber_file": "Pengelolaan_Sampah_Sektor_Informal_2022" }, "geometry": { "type": "Point", "coordinates": [ 104.794278, -2.956167 ] } },
{ "type": "Feature", "properties": { "tahun": "2022", "periode": "2", "nama_propinsi": "Sumatera Selatan", "nama_dati2": "Kota Palembang", "nama": "Arman", "jenis": "Lapak", "wilayah": "Non Ibukota Kabupaten", "status": "A", "sampah_diterima_tahun": "202.575000", "jml_kelola_tahun": "202.210000000", "bb_du_tahun": "202.210000", "bb_up_tahun": "0.000000000", "alamat": "Jl. Pangeran Antasari", "kelurahan": "Empat Belas Ilir", "kecamatan": "Ilir Timur Satu", "sumber_file": "Pengelolaan_Sampah_Sektor_Informal_2022" }, "geometry": { "type": "Point", "coordinates": [ 104.764909, -2.983888 ] } },
{ "type": "Feature", "properties": { "tahun": "2022", "periode": "2", "nama_propinsi": "Sumatera Selatan", "nama_dati2": "Kota Palembang", "nama": "Atun", "jenis": "Lapak", "wilayah": "Non Ibukota Kabupaten", "status": "A", "sampah_diterima_tahun": "216.080000", "jml_kelola_tahun": "142.167500000", "bb_du_tahun": "142.167500", "bb_up_tahun": "0.000000000", "alamat": "Jl. Sematang Borang", "kelurahan": "Sako", "kecamatan": "Sako", "sumber_file": "Pengelolaan_Sampah_Sektor_Informal_2022" }, "geometry": { "type": "Point", "coordinates": [ 104.784598, -2.922227 ] } },
{ "type": "Feature", "properties": { "tahun": "2022", "periode": "2", "nama_propinsi": "Sumatera Selatan", "nama_dati2": "Kota Palembang", "nama": "Azmin", "jenis": "Lapak", "wilayah": "Non Ibukota Kabupaten", "status": "A", "sampah_diterima_tahun": "277.400000", "jml_kelola_tahun": "277.400000000", "bb_du_tahun": "277.400000", "bb_up_tahun": "0.000000000", "alamat": "Jl. Noerdin Pandji", "kelurahan": "Sukajaya", "kecamatan": "Sukarame", "sumber_file": "Pengelolaan_Sampah_Sektor_Informal_2022" }, "geometry": { "type": "Point", "coordinates": [ 104.7463739, -2.9153285 ] } },
{ "type": "Feature", "properties": { "tahun": "2022", "periode": "2", "nama_propinsi": "Sumatera Selatan", "nama_dati2": "Kota Palembang", "nama": "Bambang", "jenis": "Lapak", "wilayah": "Non Ibukota Kabupaten", "status": "A", "sampah_diterima_tahun": "164.250000", "jml_kelola_tahun": "75.737500000", "bb_du_tahun": "75.737500", "bb_up_tahun": "0.000000000", "alamat": "Jl. Naskah 2", "kelurahan": "Sukarame", "kecamatan": "Sukarame", "sumber_file": "Pengelolaan_Sampah_Sektor_Informal_2022" }, "geometry": { "type": "Point", "coordinates": [ 104.7261779, -2.9349295 ] } },
{ "type": "Feature", "properties": { "tahun": "2022", "periode": "2", "nama_propinsi": "Sumatera Selatan", "nama_dati2": "Kota Palembang", "nama": "Beni", "jenis": "Pengepul", "wilayah": "Non Ibukota Kabupaten", "status": "A", "sampah_diterima_tahun": "313.170000", "jml_kelola_tahun": "313.170000000", "bb_du_tahun": "313.170000", "bb_up_tahun": "0.000000000", "alamat": "Jl. Pangeran Ratu", "kelurahan": "Lima belas Ulu", "kecamatan": "Jakabaring", "sumber_file": "Pengelolaan_Sampah_Sektor_Informal_2022" }, "geometry": { "type": "Point", "coordinates": [ 104.776603, -3.022633 ] } },
{ "type": "Feature", "properties": { "tahun": "2022", "periode": "2", "nama_propinsi": "Sumatera Selatan", "nama_dati2": "Kota Palembang", "nama": "Cek Nona", "jenis": "Pengepul", "wilayah": "Non Ibukota Kabupaten", "status": "A", "sampah_diterima_tahun": "1537.380000", "jml_kelola_tahun": "1537.380000000", "bb_du_tahun": "1537.380000", "bb_up_tahun": "0.000000000", "alamat": "Jl. Melati", "kelurahan": "Delapan Ulu", "kecamatan": "Jakabaring", "sumber_file": "Pengelolaan_Sampah_Sektor_Informal_2022" }, "geometry": { "type": "Point", "coordinates": [ 104.776603, -3.022633 ] } },
{ "type": "Feature", "properties": { "tahun": "2022", "periode": "2", "nama_propinsi": "Sumatera Selatan", "nama_dati2": "Kota Palembang", "nama": "Daniel Kiswanto", "jenis": "Pengepul", "wilayah": "Non Ibukota Kabupaten", "status": "A", "sampah_diterima_tahun": "313.900000", "jml_kelola_tahun": "313.900000000", "bb_du_tahun": "313.900000", "bb_up_tahun": "0.000000000", "alamat": "Jl. Bypass Alang-Alang Lebar", "kelurahan": "Talang Kelapa", "kecamatan": "Alang-Alang Lebar", "sumber_file": "Pengelolaan_Sampah_Sektor_Informal_2022" }, "geometry": { "type": "Point", "coordinates": [ 104.681618, -2.927155 ] } },
{ "type": "Feature", "properties": { "tahun": "2022", "periode": "2", "nama_propinsi": "Sumatera Selatan", "nama_dati2": "Kota Palembang", "nama": "David Pranata", "jenis": "Pengepul", "wilayah": "Non Ibukota Kabupaten", "status": "A", "sampah_diterima_tahun": "73.000000", "jml_kelola_tahun": "73.000000000", "bb_du_tahun": "73.000000", "bb_up_tahun": "0.000000000", "alamat": "Jl. Soekarno Hatta", "kelurahan": "Talang Kelapa", "kecamatan": "Alang-Alang Lebar", "sumber_file": "Pengelolaan_Sampah_Sektor_Informal_2022" }, "geometry": { "type": "Point", "coordinates": [ 104.698783, -2.947248 ] } },
{ "type": "Feature", "properties": { "tahun": "2022", "periode": "2", "nama_propinsi": "Sumatera Selatan", "nama_dati2": "Kota Palembang", "nama": "Deki", "jenis": "Pengepul", "wilayah": "Non Ibukota Kabupaten", "status": "A", "sampah_diterima_tahun": "1317.650000", "jml_kelola_tahun": "1317.650000000", "bb_du_tahun": "1317.650000", "bb_up_tahun": "0.000000000", "alamat": "Jl. Melati", "kelurahan": "Dua Puluh Ilir D Tiga", "kecamatan": "Ilir Timur Satu", "sumber_file": "Pengelolaan_Sampah_Sektor_Informal_2022" }, "geometry": { "type": "Point", "coordinates": [ 104.747796, -2.970659 ] } },
{ "type": "Feature", "properties": { "tahun": "2022", "periode": "2", "nama_propinsi": "Sumatera Selatan", "nama_dati2": "Kota Palembang", "nama": "Depot Barang Bekas", "jenis": "Lapak", "wilayah": "Non Ibukota Kabupaten", "status": "A", "sampah_diterima_tahun": "149.650000", "jml_kelola_tahun": "136.875000000", "bb_du_tahun": "136.875000", "bb_up_tahun": "0.000000000", "alamat": "Jl. Kelapa Gading V", "kelurahan": null, "kecamatan": null, "sumber_file": "Pengelolaan_Sampah_Sektor_Informal_2022" }, "geometry": { "type": "Point", "coordinates": [ 104.6880109, -2.9398771 ] } },
{ "type": "Feature", "properties": { "tahun": "2022", "periode": "2", "nama_propinsi": "Sumatera Selatan", "nama_dati2": "Kota Palembang", "nama": "depot Rongsongkan Toke Mudo", "jenis": "Pengepul", "wilayah": "Ibukota kabupaten/Kota", "status": "A", "sampah_diterima_tahun": "547.500000", "jml_kelola_tahun": "547.500000000", "bb_du_tahun": "547.500000", "bb_up_tahun": "0.000000000", "alamat": "Jl. Tegal Binangun", "kelurahan": null, "kecamatan": null, "sumber_file": "Pengelolaan_Sampah_Sektor_Informal_2022" }, "geometry": { "type": "Point", "coordinates": [ 104.8005933, -3.0299001 ] } },
{ "type": "Feature", "properties": { "tahun": "2022", "periode": "2", "nama_propinsi": "Sumatera Selatan", "nama_dati2": "Kota Palembang", "nama": "Depot Samo Raso", "jenis": "Pengepul", "wilayah": "Non Ibukota Kabupaten", "status": "A", "sampah_diterima_tahun": "916.150000", "jml_kelola_tahun": "916.150000000", "bb_du_tahun": "916.150000", "bb_up_tahun": "0.000000000", "alamat": "Jl. Sukawinatan RT 50 RW 05", "kelurahan": "Sukajaya", "kecamatan": "Sukarame", "sumber_file": "Pengelolaan_Sampah_Sektor_Informal_2022" }, "geometry": { "type": "Point", "coordinates": [ 104.749138, -2.913744 ] } },
{ "type": "Feature", "properties": { "tahun": "2022", "periode": "2", "nama_propinsi": "Sumatera Selatan", "nama_dati2": "Kota Palembang", "nama": "Erpani", "jenis": "Pengepul", "wilayah": "Non Ibukota Kabupaten", "status": "A", "sampah_diterima_tahun": "952.650000", "jml_kelola_tahun": "659.737500000", "bb_du_tahun": "659.737500", "bb_up_tahun": "0.000000000", "alamat": "Jl. Rimba Kemuning", "kelurahan": "Ario Kemuning", "kecamatan": "Kemuning", "sumber_file": "Pengelolaan_Sampah_Sektor_Informal_2022" }, "geometry": { "type": "Point", "coordinates": [ 104.745354, -2.952093 ] } },
{ "type": "Feature", "properties": { "tahun": "2022", "periode": "2", "nama_propinsi": "Sumatera Selatan", "nama_dati2": "Kota Palembang", "nama": "Gilik", "jenis": "Lapak", "wilayah": "Non Ibukota Kabupaten", "status": "A", "sampah_diterima_tahun": "1098.650000", "jml_kelola_tahun": "878.737500000", "bb_du_tahun": "878.737500", "bb_up_tahun": "0.000000000", "alamat": "Jl. Bedung Indah ", "kelurahan": "Sembilan Ilir", "kecamatan": "ilir timur tiga", "sumber_file": "Pengelolaan_Sampah_Sektor_Informal_2022" }, "geometry": { "type": "Point", "coordinates": [ 104.761119, -2.959409 ] } },
{ "type": "Feature", "properties": { "tahun": "2022", "periode": "2", "nama_propinsi": "Sumatera Selatan", "nama_dati2": "Kota Palembang", "nama": "Harris", "jenis": "Lapak", "wilayah": "Non Ibukota Kabupaten", "status": "A", "sampah_diterima_tahun": "297.475000", "jml_kelola_tahun": "297.475000000", "bb_du_tahun": "297.475000", "bb_up_tahun": "0.000000000", "alamat": "Jl. Karya Bersama ", "kelurahan": "Srimulya", "kecamatan": "Sematang Borang", "sumber_file": "Pengelolaan_Sampah_Sektor_Informal_2022" }, "geometry": { "type": "Point", "coordinates": [ 104.821563, -2.939627 ] } },
{ "type": "Feature", "properties": { "tahun": "2022", "periode": "2", "nama_propinsi": "Sumatera Selatan", "nama_dati2": "Kota Palembang", "nama": "Hatta", "jenis": "Pengepul", "wilayah": "Non Ibukota Kabupaten", "status": "A", "sampah_diterima_tahun": "316.820000", "jml_kelola_tahun": "316.820000000", "bb_du_tahun": "316.820000", "bb_up_tahun": "0.000000000", "alamat": "Jl. Soerkano Hatta", "kelurahan": "Karya Baru", "kecamatan": "Alang-Alang Lebar", "sumber_file": "Pengelolaan_Sampah_Sektor_Informal_2022" }, "geometry": { "type": "Point", "coordinates": [ 104.704012, -2.932982 ] } },
{ "type": "Feature", "properties": { "tahun": "2022", "periode": "2", "nama_propinsi": "Sumatera Selatan", "nama_dati2": "Kota Palembang", "nama": "Hustoni", "jenis": "Lapak", "wilayah": "Non Ibukota Kabupaten", "status": "A", "sampah_diterima_tahun": "1697.250000", "jml_kelola_tahun": "169.725000000", "bb_du_tahun": "169.725000", "bb_up_tahun": "0.000000000", "alamat": "Jl. Surya Sakti RT 027 RW 013 ", "kelurahan": "Sukarame", "kecamatan": "Sukarame", "sumber_file": "Pengelolaan_Sampah_Sektor_Informal_2022" }, "geometry": { "type": "Point", "coordinates": [ 104.7204061, -2.9275868 ] } },
{ "type": "Feature", "properties": { "tahun": "2022", "periode": "2", "nama_propinsi": "Sumatera Selatan", "nama_dati2": "Kota Palembang", "nama": "Ican", "jenis": "Pengepul", "wilayah": "Non Ibukota Kabupaten", "status": "A", "sampah_diterima_tahun": "952.650000", "jml_kelola_tahun": "659.737500000", "bb_du_tahun": "659.737500", "bb_up_tahun": "0.000000000", "alamat": "Jl. Sayangan Lr. Himalaya", "kelurahan": "Enam Belas Ilir", "kecamatan": "Ilir Timur Satu", "sumber_file": "Pengelolaan_Sampah_Sektor_Informal_2022" }, "geometry": { "type": "Point", "coordinates": [ 104.764367, -2.986634 ] } },
{ "type": "Feature", "properties": { "tahun": "2022", "periode": "2", "nama_propinsi": "Sumatera Selatan", "nama_dati2": "Kota Palembang", "nama": "Ilham", "jenis": "Pengepul", "wilayah": "Non Ibukota Kabupaten", "status": "A", "sampah_diterima_tahun": "949.000000", "jml_kelola_tahun": "623.237500000", "bb_du_tahun": "623.237500", "bb_up_tahun": "0.000000000", "alamat": "Jl. Srijaya ", "kelurahan": "Talang Kelapa", "kecamatan": "Alang-Alang Lebar", "sumber_file": "Pengelolaan_Sampah_Sektor_Informal_2022" }, "geometry": { "type": "Point", "coordinates": [ 104.699818, -2.950315 ] } },
{ "type": "Feature", "properties": { "tahun": "2022", "periode": "2", "nama_propinsi": "Sumatera Selatan", "nama_dati2": "Kota Palembang", "nama": "Jual Beli Barang Bekas", "jenis": "Lapak", "wilayah": "Ibukota kabupaten/Kota", "status": "A", "sampah_diterima_tahun": "135.050000", "jml_kelola_tahun": "93.075000000", "bb_du_tahun": "93.075000", "bb_up_tahun": "0.000000000", "alamat": "Jl. Naskah III ", "kelurahan": null, "kecamatan": null, "sumber_file": "Pengelolaan_Sampah_Sektor_Informal_2022" }, "geometry": { "type": "Point", "coordinates": [ 104.7285042, -2.9295005 ] } },
{ "type": "Feature", "properties": { "tahun": "2022", "periode": "2", "nama_propinsi": "Sumatera Selatan", "nama_dati2": "Kota Palembang", "nama": "Jual Beli Barang Bekas Malwi", "jenis": "Lapak", "wilayah": "Non Ibukota Kabupaten", "status": "A", "sampah_diterima_tahun": "171.550000", "jml_kelola_tahun": "166.075000000", "bb_du_tahun": "166.075000", "bb_up_tahun": "0.000000000", "alamat": "Jl. Panca Sila Karya Baru ", "kelurahan": null, "kecamatan": null, "sumber_file": "Pengelolaan_Sampah_Sektor_Informal_2022" }, "geometry": { "type": "Point", "coordinates": [ 104.7098411, -2.929225 ] } },
{ "type": "Feature", "properties": { "tahun": "2022", "periode": "2", "nama_propinsi": "Sumatera Selatan", "nama_dati2": "Kota Palembang", "nama": "Laidi", "jenis": "Lapak", "wilayah": "Non Ibukota Kabupaten", "status": "A", "sampah_diterima_tahun": "131.400000", "jml_kelola_tahun": "131.400000000", "bb_du_tahun": "131.400000", "bb_up_tahun": "0.000000000", "alamat": "Jl. Padat LKarya", "kelurahan": "Srimulya", "kecamatan": "Sematang Borang", "sumber_file": "Pengelolaan_Sampah_Sektor_Informal_2022" }, "geometry": { "type": "Point", "coordinates": [ 104.802009, -2.939902 ] } },
{ "type": "Feature", "properties": { "tahun": "2022", "periode": "2", "nama_propinsi": "Sumatera Selatan", "nama_dati2": "Kota Palembang", "nama": "Lapak Ade", "jenis": "Lapak", "wilayah": "Non Ibukota Kabupaten", "status": "A", "sampah_diterima_tahun": "262.800000", "jml_kelola_tahun": "262.800000000", "bb_du_tahun": "262.800000", "bb_up_tahun": "0.000000000", "alamat": "Jl. H. Husen ", "kelurahan": "", "kecamatan": "Sukarami", "sumber_file": "Pengelolaan_Sampah_Sektor_Informal_2022" }, "geometry": { "type": "Point", "coordinates": [ 104.743676, -2.9187577 ] } },
{ "type": "Feature", "properties": { "tahun": "2022", "periode": "2", "nama_propinsi": "Sumatera Selatan", "nama_dati2": "Kota Palembang", "nama": "Lapak Adi", "jenis": "Lapak", "wilayah": "Non Ibukota Kabupaten", "status": "A", "sampah_diterima_tahun": "224.475000", "jml_kelola_tahun": "224.475000000", "bb_du_tahun": "224.475000", "bb_up_tahun": "0.000000000", "alamat": "Jl. Melati ", "kelurahan": "20 Ilir", "kecamatan": "Ilir Timur I", "sumber_file": "Pengelolaan_Sampah_Sektor_Informal_2022" }, "geometry": { "type": "Point", "coordinates": [ 104.748026, -2.9705837 ] } },
{ "type": "Feature", "properties": { "tahun": "2022", "periode": "2", "nama_propinsi": "Sumatera Selatan", "nama_dati2": "Kota Palembang", "nama": "Lapak Agus", "jenis": "Lapak", "wilayah": "Non Ibukota Kabupaten", "status": "A", "sampah_diterima_tahun": "2376.150000", "jml_kelola_tahun": "2376.150000000", "bb_du_tahun": "2376.150000", "bb_up_tahun": "0.000000000", "alamat": "Jl. Ki Ronggo Wirosantiko ", "kelurahan": "30 Ilir", "kecamatan": "Ili Barat II", "sumber_file": "Pengelolaan_Sampah_Sektor_Informal_2022" }, "geometry": { "type": "Point", "coordinates": [ 104.7502349, -2.9982058 ] } },
{ "type": "Feature", "properties": { "tahun": "2022", "periode": "2", "nama_propinsi": "Sumatera Selatan", "nama_dati2": "Kota Palembang", "nama": "Lapak Agus Salim", "jenis": "Lapak", "wilayah": "Non Ibukota Kabupaten", "status": "A", "sampah_diterima_tahun": "662.475000", "jml_kelola_tahun": "479.062500000", "bb_du_tahun": "479.062500", "bb_up_tahun": "0.000000000", "alamat": "Jl. Tegu Kandrak 31/10", "kelurahan": "Karya Jaya", "kecamatan": "Kertapati", "sumber_file": "Pengelolaan_Sampah_Sektor_Informal_2022" }, "geometry": { "type": "Point", "coordinates": [ 104.7112631, -3.0497097 ] } },
{ "type": "Feature", "properties": { "tahun": "2022", "periode": "2", "nama_propinsi": "Sumatera Selatan", "nama_dati2": "Kota Palembang", "nama": "Lapak Ahmad Cekwe", "jenis": "Lapak", "wilayah": "Non Ibukota Kabupaten", "status": "A", "sampah_diterima_tahun": "205.495000", "jml_kelola_tahun": "205.495000000", "bb_du_tahun": "205.495000", "bb_up_tahun": "0.000000000", "alamat": "Jl. Kadir ", "kelurahan": "36 Ilir", "kecamatan": "Gandus", "sumber_file": "Pengelolaan_Sampah_Sektor_Informal_2022" }, "geometry": { "type": "Point", "coordinates": [ 104.7421251, -3.0142307 ] } },
{ "type": "Feature", "properties": { "tahun": "2022", "periode": "2", "nama_propinsi": "Sumatera Selatan", "nama_dati2": "Kota Palembang", "nama": "Lapak Amir", "jenis": "Lapak", "wilayah": "Non Ibukota Kabupaten", "status": "A", "sampah_diterima_tahun": "332.880000", "jml_kelola_tahun": "332.697500000", "bb_du_tahun": "332.697500", "bb_up_tahun": "0.000000000", "alamat": "Jl. Pangeran Ratu ", "kelurahan": "15 Ulu", "kecamatan": "Seberang ulu I", "sumber_file": "Pengelolaan_Sampah_Sektor_Informal_2022" }, "geometry": { "type": "Point", "coordinates": [ 104.7754261, -3.0238018 ] } },
{ "type": "Feature", "properties": { "tahun": "2022", "periode": "2", "nama_propinsi": "Sumatera Selatan", "nama_dati2": "Kota Palembang", "nama": "Lapak Andari", "jenis": "Lapak", "wilayah": "Non Ibukota Kabupaten", "status": "A", "sampah_diterima_tahun": "294.920000", "jml_kelola_tahun": "294.920000000", "bb_du_tahun": "294.920000", "bb_up_tahun": "0.000000000", "alamat": "TPA I ", "kelurahan": "Sukajaya/Sukabangun", "kecamatan": "Sukarami", "sumber_file": "Pengelolaan_Sampah_Sektor_Informal_2022" }, "geometry": { "type": "Point", "coordinates": [ 104.7371889, -2.9333156 ] } },
{ "type": "Feature", "properties": { "tahun": "2022", "periode": "2", "nama_propinsi": "Sumatera Selatan", "nama_dati2": "Kota Palembang", "nama": "Lapak Anhar", "jenis": "Lapak", "wilayah": "Non Ibukota Kabupaten", "status": "A", "sampah_diterima_tahun": "278.130000", "jml_kelola_tahun": "193.267500000", "bb_du_tahun": "193.267500", "bb_up_tahun": "0.000000000", "alamat": "Jl. Kapten Abdullah No. 18 30", "kelurahan": "Plaju Darat", "kecamatan": "Plaju Darat", "sumber_file": "Pengelolaan_Sampah_Sektor_Informal_2022" }, "geometry": { "type": "Point", "coordinates": [ 104.8174407, -3.0040543 ] } },
{ "type": "Feature", "properties": { "tahun": "2022", "periode": "2", "nama_propinsi": "Sumatera Selatan", "nama_dati2": "Kota Palembang", "nama": "Lapak Anton", "jenis": "Lapak", "wilayah": "Non Ibukota Kabupaten", "status": "A", "sampah_diterima_tahun": "187.975000", "jml_kelola_tahun": "187.792500000", "bb_du_tahun": "187.792500", "bb_up_tahun": "0.000000000", "alamat": "Jl. DI. Panjaitan ", "kelurahan": "", "kecamatan": "Plaju", "sumber_file": "Pengelolaan_Sampah_Sektor_Informal_2022" }, "geometry": { "type": "Point", "coordinates": [ 104.8060918, -2.9944898 ] } },
{ "type": "Feature", "properties": { "tahun": "2022", "periode": "2", "nama_propinsi": "Sumatera Selatan", "nama_dati2": "Kota Palembang", "nama": "Lapak Ari", "jenis": "Lapak", "wilayah": "Non Ibukota Kabupaten", "status": "A", "sampah_diterima_tahun": "187.975000", "jml_kelola_tahun": "131.400000000", "bb_du_tahun": "131.400000", "bb_up_tahun": "0.000000000", "alamat": "Jl. Jambe ", "kelurahan": "", "kecamatan": "Sukarami", "sumber_file": "Pengelolaan_Sampah_Sektor_Informal_2022" }, "geometry": { "type": "Point", "coordinates": [ 104.718433, -2.8957693 ] } },
{ "type": "Feature", "properties": { "tahun": "2022", "periode": "2", "nama_propinsi": "Sumatera Selatan", "nama_dati2": "Kota Palembang", "nama": "Lapak Ateh", "jenis": "Lapak", "wilayah": "Non Ibukota Kabupaten", "status": "A", "sampah_diterima_tahun": "204.400000", "jml_kelola_tahun": "130.487500000", "bb_du_tahun": "130.487500", "bb_up_tahun": "0.000000000", "alamat": "Jl. Ariodilah 3 ", "kelurahan": "20 Ilir", "kecamatan": "Ilir Timur I", "sumber_file": "Pengelolaan_Sampah_Sektor_Informal_2022" }, "geometry": { "type": "Point", "coordinates": [ 104.7380997, -2.9642139 ] } },
{ "type": "Feature", "properties": { "tahun": "2022", "periode": "2", "nama_propinsi": "Sumatera Selatan", "nama_dati2": "Kota Palembang", "nama": "Lapak Azhari", "jenis": "Lapak", "wilayah": "Non Ibukota Kabupaten", "status": "A", "sampah_diterima_tahun": "275.575000", "jml_kelola_tahun": "275.575000000", "bb_du_tahun": "275.575000", "bb_up_tahun": "0.000000000", "alamat": "Jl. Syakyakirti ", "kelurahan": "Karang Jaya", "kecamatan": "Gandus", "sumber_file": "Pengelolaan_Sampah_Sektor_Informal_2022" }, "geometry": { "type": "Point", "coordinates": [ 104.7250544, -3.0191147 ] } },
{ "type": "Feature", "properties": { "tahun": "2022", "periode": "2", "nama_propinsi": "Sumatera Selatan", "nama_dati2": "Kota Palembang", "nama": "Lapak Azwar", "jenis": "Lapak", "wilayah": "Non Ibukota Kabupaten", "status": "A", "sampah_diterima_tahun": "1317.650000", "jml_kelola_tahun": "1317.650000000", "bb_du_tahun": "1317.650000", "bb_up_tahun": "0.000000000", "alamat": "Jl. Sukawinatan ", "kelurahan": "Sukajaya/Sukabangun", "kecamatan": "Sukarami", "sumber_file": "Pengelolaan_Sampah_Sektor_Informal_2022" }, "geometry": { "type": "Point", "coordinates": [ 104.7509862, -2.9284298 ] } },
{ "type": "Feature", "properties": { "tahun": "2022", "periode": "2", "nama_propinsi": "Sumatera Selatan", "nama_dati2": "Kota Palembang", "nama": "Lapak Barang Bekas I", "jenis": "Lapak", "wilayah": "Ibukota kabupaten/Kota", "status": "A", "sampah_diterima_tahun": "87.600000", "jml_kelola_tahun": "87.600000000", "bb_du_tahun": "87.600000", "bb_up_tahun": "0.000000000", "alamat": "Jl. Sukarno Hatta", "kelurahan": null, "kecamatan": null, "sumber_file": "Pengelolaan_Sampah_Sektor_Informal_2022" }, "geometry": { "type": "Point", "coordinates": [ 104.7038477, -2.933097 ] } },
{ "type": "Feature", "properties": { "tahun": "2022", "periode": "2", "nama_propinsi": "Sumatera Selatan", "nama_dati2": "Kota Palembang", "nama": "Lapak Barang Bekas II", "jenis": "Lapak", "wilayah": "Ibukota kabupaten/Kota", "status": "A", "sampah_diterima_tahun": "100.375000", "jml_kelola_tahun": "100.375000000", "bb_du_tahun": "100.375000", "bb_up_tahun": "0.000000000", "alamat": "Jl. Sukarno Hatta", "kelurahan": null, "kecamatan": null, "sumber_file": "Pengelolaan_Sampah_Sektor_Informal_2022" }, "geometry": { "type": "Point", "coordinates": [ 104.7040462, -2.9326623 ] } },
{ "type": "Feature", "properties": { "tahun": "2022", "periode": "2", "nama_propinsi": "Sumatera Selatan", "nama_dati2": "Kota Palembang", "nama": "Lapak Barang Bekas III", "jenis": "Lapak", "wilayah": "Ibukota kabupaten/Kota", "status": "A", "sampah_diterima_tahun": "127.750000", "jml_kelola_tahun": "127.750000000", "bb_du_tahun": "127.750000", "bb_up_tahun": "0.000000000", "alamat": "Jl. Sukarno Hatta", "kelurahan": null, "kecamatan": null, "sumber_file": "Pengelolaan_Sampah_Sektor_Informal_2022" }, "geometry": { "type": "Point", "coordinates": [ 104.7040589, -2.9325642 ] } },
{ "type": "Feature", "properties": { "tahun": "2022", "periode": "2", "nama_propinsi": "Sumatera Selatan", "nama_dati2": "Kota Palembang", "nama": "Lapak Batak", "jenis": "Lapak", "wilayah": "Non Ibukota Kabupaten", "status": "A", "sampah_diterima_tahun": "242.725000", "jml_kelola_tahun": "242.725000000", "bb_du_tahun": "242.725000", "bb_up_tahun": "0.000000000", "alamat": "SMA 22 Perumnas Talang Kelapa ", "kelurahan": "Talang Kelapa", "kecamatan": "Alang Alang Lebar", "sumber_file": "Pengelolaan_Sampah_Sektor_Informal_2022" }, "geometry": { "type": "Point", "coordinates": [ 104.6881923, -2.9346795 ] } },
{ "type": "Feature", "properties": { "tahun": "2022", "periode": "2", "nama_propinsi": "Sumatera Selatan", "nama_dati2": "Kota Palembang", "nama": "Lapak Budi", "jenis": "Lapak", "wilayah": "Non Ibukota Kabupaten", "status": "A", "sampah_diterima_tahun": "259.150000", "jml_kelola_tahun": "259.150000000", "bb_du_tahun": "259.150000", "bb_up_tahun": "0.000000000", "alamat": "Jl. M. Isa ", "kelurahan": "", "kecamatan": "Ilir Timur II", "sumber_file": "Pengelolaan_Sampah_Sektor_Informal_2022" }, "geometry": { "type": "Point", "coordinates": [ 104.7698158, -2.9714206 ] } },
{ "type": "Feature", "properties": { "tahun": "2022", "periode": "2", "nama_propinsi": "Sumatera Selatan", "nama_dati2": "Kota Palembang", "nama": "Lapak Darwis", "jenis": "Lapak", "wilayah": "Non Ibukota Kabupaten", "status": "A", "sampah_diterima_tahun": "197.100000", "jml_kelola_tahun": "197.100000000", "bb_du_tahun": "197.100000", "bb_up_tahun": "0.000000000", "alamat": "Jl. Sriwijaya Raya No. 559 1/1", "kelurahan": "Karya Jaya", "kecamatan": "Kertapati", "sumber_file": "Pengelolaan_Sampah_Sektor_Informal_2022" }, "geometry": { "type": "Point", "coordinates": [ 104.7430666, -3.0493939 ] } },
{ "type": "Feature", "properties": { "tahun": "2022", "periode": "2", "nama_propinsi": "Sumatera Selatan", "nama_dati2": "Kota Palembang", "nama": "Lapak Daryono", "jenis": "Lapak", "wilayah": "Non Ibukota Kabupaten", "status": "A", "sampah_diterima_tahun": "315.725000", "jml_kelola_tahun": "315.725000000", "bb_du_tahun": "315.725000", "bb_up_tahun": "0.000000000", "alamat": "TPA I ", "kelurahan": "Sukajaya/Sukabangun", "kecamatan": "Sukarami", "sumber_file": "Pengelolaan_Sampah_Sektor_Informal_2022" }, "geometry": { "type": "Point", "coordinates": [ 104.7371889, -2.9333156 ] } },
{ "type": "Feature", "properties": { "tahun": "2022", "periode": "2", "nama_propinsi": "Sumatera Selatan", "nama_dati2": "Kota Palembang", "nama": "Lapak Dayat", "jenis": "Lapak", "wilayah": "Non Ibukota Kabupaten", "status": "A", "sampah_diterima_tahun": "2752.100000", "jml_kelola_tahun": "1827.737500000", "bb_du_tahun": "1827.737500", "bb_up_tahun": "0.000000000", "alamat": "Jl. TPA 2 Karya Jaya 29/10", "kelurahan": "Karya Jaya", "kecamatan": "Kertapati", "sumber_file": "Pengelolaan_Sampah_Sektor_Informal_2022" }, "geometry": { "type": "Point", "coordinates": [ 104.7076545, -3.051164 ] } },
{ "type": "Feature", "properties": { "tahun": "2022", "periode": "2", "nama_propinsi": "Sumatera Selatan", "nama_dati2": "Kota Palembang", "nama": "Lapak Didi", "jenis": "Lapak", "wilayah": "Non Ibukota Kabupaten", "status": "A", "sampah_diterima_tahun": "240.900000", "jml_kelola_tahun": "240.900000000", "bb_du_tahun": "240.900000", "bb_up_tahun": "0.000000000", "alamat": "Jl. Noerdin Pandji ", "kelurahan": "Karya Baru", "kecamatan": "Alang Alang Lebar", "sumber_file": "Pengelolaan_Sampah_Sektor_Informal_2022" }, "geometry": { "type": "Point", "coordinates": [ 104.7463739, -2.9153285 ] } },
{ "type": "Feature", "properties": { "tahun": "2022", "periode": "2", "nama_propinsi": "Sumatera Selatan", "nama_dati2": "Kota Palembang", "nama": "Lapak Diko", "jenis": "Lapak", "wilayah": "Non Ibukota Kabupaten", "status": "A", "sampah_diterima_tahun": "260.975000", "jml_kelola_tahun": "260.975000000", "bb_du_tahun": "260.975000", "bb_up_tahun": "0.000000000", "alamat": "Sukamulya", "kelurahan": "Sukamulya", "kecamatan": "Sematang Borang", "sumber_file": "Pengelolaan_Sampah_Sektor_Informal_2022" }, "geometry": { "type": "Point", "coordinates": [ 104.8308695, -2.943837 ] } },
{ "type": "Feature", "properties": { "tahun": "2022", "periode": "2", "nama_propinsi": "Sumatera Selatan", "nama_dati2": "Kota Palembang", "nama": "Lapak Edi Riduan", "jenis": "Lapak", "wilayah": "Non Ibukota Kabupaten", "status": "A", "sampah_diterima_tahun": "222.650000", "jml_kelola_tahun": "222.650000000", "bb_du_tahun": "222.650000", "bb_up_tahun": "0.000000000", "alamat": "Jl. Datuk m. Akib ", "kelurahan": "23 Ilir", "kecamatan": "Bukit Kecil", "sumber_file": "Pengelolaan_Sampah_Sektor_Informal_2022" }, "geometry": { "type": "Point", "coordinates": [ 104.7552319, -2.9879644 ] } },
{ "type": "Feature", "properties": { "tahun": "2022", "periode": "2", "nama_propinsi": "Sumatera Selatan", "nama_dati2": "Kota Palembang", "nama": "Lapak Eman", "jenis": "Lapak", "wilayah": "Non Ibukota Kabupaten", "status": "A", "sampah_diterima_tahun": "177.025000", "jml_kelola_tahun": "177.025000000", "bb_du_tahun": "177.025000", "bb_up_tahun": "0.000000000", "alamat": "Sukamulya", "kelurahan": "Sukamulya", "kecamatan": "Sematang Borang", "sumber_file": "Pengelolaan_Sampah_Sektor_Informal_2022" }, "geometry": { "type": "Point", "coordinates": [ 104.8308695, -2.943837 ] } },
{ "type": "Feature", "properties": { "tahun": "2022", "periode": "2", "nama_propinsi": "Sumatera Selatan", "nama_dati2": "Kota Palembang", "nama": "Lapak Erwin", "jenis": "Lapak", "wilayah": "Non Ibukota Kabupaten", "status": "A", "sampah_diterima_tahun": "135.050000", "jml_kelola_tahun": "135.050000000", "bb_du_tahun": "135.050000", "bb_up_tahun": "0.000000000", "alamat": "Jl. DI. Panjaitan ", "kelurahan": "", "kecamatan": "Plaju", "sumber_file": "Pengelolaan_Sampah_Sektor_Informal_2022" }, "geometry": { "type": "Point", "coordinates": [ 104.8060918, -2.9944898 ] } },
{ "type": "Feature", "properties": { "tahun": "2022", "periode": "2", "nama_propinsi": "Sumatera Selatan", "nama_dati2": "Kota Palembang", "nama": "Lapak Ferdianto", "jenis": "Lapak", "wilayah": "Non Ibukota Kabupaten", "status": "A", "sampah_diterima_tahun": "133.225000", "jml_kelola_tahun": "133.225000000", "bb_du_tahun": "133.225000", "bb_up_tahun": "0.000000000", "alamat": "jl. Kapten Cek Syeh ", "kelurahan": "24 Ilir", "kecamatan": "Bukit Kecil", "sumber_file": "Pengelolaan_Sampah_Sektor_Informal_2022" }, "geometry": { "type": "Point", "coordinates": [ 104.7572021, -2.9864773 ] } },
{ "type": "Feature", "properties": { "tahun": "2022", "periode": "2", "nama_propinsi": "Sumatera Selatan", "nama_dati2": "Kota Palembang", "nama": "Lapak Fran", "jenis": "Lapak", "wilayah": "Non Ibukota Kabupaten", "status": "A", "sampah_diterima_tahun": "240.170000", "jml_kelola_tahun": "240.170000000", "bb_du_tahun": "240.170000", "bb_up_tahun": "0.000000000", "alamat": "Jl. Wahid Hasyim ", "kelurahan": "3/4 Ulu", "kecamatan": "Seberang Ulu I", "sumber_file": "Pengelolaan_Sampah_Sektor_Informal_2022" }, "geometry": { "type": "Point", "coordinates": [ 104.7579251, -3.0113087 ] } },
{ "type": "Feature", "properties": { "tahun": "2022", "periode": "2", "nama_propinsi": "Sumatera Selatan", "nama_dati2": "Kota Palembang", "nama": "Lapak H. Anton", "jenis": "Lapak", "wilayah": "Non Ibukota Kabupaten", "status": "A", "sampah_diterima_tahun": "206.225000", "jml_kelola_tahun": "206.225000000", "bb_du_tahun": "206.225000", "bb_up_tahun": "0.000000000", "alamat": "Jl. Sriwijaya Raya No. 559 11/1", "kelurahan": "Karya Jaya", "kecamatan": "Kertapati", "sumber_file": "Pengelolaan_Sampah_Sektor_Informal_2022" }, "geometry": { "type": "Point", "coordinates": [ 104.7430666, -3.0493939 ] } },
{ "type": "Feature", "properties": { "tahun": "2022", "periode": "2", "nama_propinsi": "Sumatera Selatan", "nama_dati2": "Kota Palembang", "nama": "Lapak H. Butun", "jenis": "Lapak", "wilayah": "Non Ibukota Kabupaten", "status": "A", "sampah_diterima_tahun": "171.550000", "jml_kelola_tahun": "171.550000000", "bb_du_tahun": "171.550000", "bb_up_tahun": "0.000000000", "alamat": "Jl. Sriwijaya Raya No. 559 1/1", "kelurahan": "Karya Jaya", "kecamatan": "Kertapati", "sumber_file": "Pengelolaan_Sampah_Sektor_Informal_2022" }, "geometry": { "type": "Point", "coordinates": [ 104.7430666, -3.0493939 ] } },
{ "type": "Feature", "properties": { "tahun": "2022", "periode": "2", "nama_propinsi": "Sumatera Selatan", "nama_dati2": "Kota Palembang", "nama": "Lapak H. Ujang", "jenis": "Lapak", "wilayah": "Non Ibukota Kabupaten", "status": "A", "sampah_diterima_tahun": "259.150000", "jml_kelola_tahun": "166.987500000", "bb_du_tahun": "166.987500", "bb_up_tahun": "0.000000000", "alamat": "Jl. Sriwijaya Raya No. 559 38/15", "kelurahan": "karya jaya", "kecamatan": "Kertapati", "sumber_file": "Pengelolaan_Sampah_Sektor_Informal_2022" }, "geometry": { "type": "Point", "coordinates": [ 104.7430666, -3.0493939 ] } },
{ "type": "Feature", "properties": { "tahun": "2022", "periode": "2", "nama_propinsi": "Sumatera Selatan", "nama_dati2": "Kota Palembang", "nama": "Lapak Hamid", "jenis": "Lapak", "wilayah": "Non Ibukota Kabupaten", "status": "A", "sampah_diterima_tahun": "151.475000", "jml_kelola_tahun": "151.475000000", "bb_du_tahun": "151.475000", "bb_up_tahun": "0.000000000", "alamat": "Jl. KH. Azhari ", "kelurahan": "14 ULU", "kecamatan": "Seberang Ulu II", "sumber_file": "Pengelolaan_Sampah_Sektor_Informal_2022" }, "geometry": { "type": "Point", "coordinates": [ 104.7788407, -2.987039 ] } },
{ "type": "Feature", "properties": { "tahun": "2022", "periode": "2", "nama_propinsi": "Sumatera Selatan", "nama_dati2": "Kota Palembang", "nama": "Lapak Heri", "jenis": "Lapak", "wilayah": "Non Ibukota Kabupaten", "status": "A", "sampah_diterima_tahun": "1314.000000", "jml_kelola_tahun": "1314.000000000", "bb_du_tahun": "1314.000000", "bb_up_tahun": "0.000000000", "alamat": "TPA I ", "kelurahan": "Sukajaya/Sukabangun", "kecamatan": "Sukarami", "sumber_file": "Pengelolaan_Sampah_Sektor_Informal_2022" }, "geometry": { "type": "Point", "coordinates": [ 104.7371889, -2.9333156 ] } },
{ "type": "Feature", "properties": { "tahun": "2022", "periode": "2", "nama_propinsi": "Sumatera Selatan", "nama_dati2": "Kota Palembang", "nama": "Lapak Iwan", "jenis": "Lapak", "wilayah": "Non Ibukota Kabupaten", "status": "A", "sampah_diterima_tahun": "160.600000", "jml_kelola_tahun": "160.600000000", "bb_du_tahun": "160.600000", "bb_up_tahun": "0.000000000", "alamat": "Jl. KH. Azahari ", "kelurahan": "11 ULU", "kecamatan": "Seberang Ulu II", "sumber_file": "Pengelolaan_Sampah_Sektor_Informal_2022" }, "geometry": { "type": "Point", "coordinates": [ 104.7696893, -2.9905792 ] } },
{ "type": "Feature", "properties": { "tahun": "2022", "periode": "2", "nama_propinsi": "Sumatera Selatan", "nama_dati2": "Kota Palembang", "nama": "Lapak Iwan Kurniawan", "jenis": "Lapak", "wilayah": "Non Ibukota Kabupaten", "status": "A", "sampah_diterima_tahun": "167.900000", "jml_kelola_tahun": "167.900000000", "bb_du_tahun": "167.900000", "bb_up_tahun": "0.000000000", "alamat": "Jl. Yusuf Singadekane 10", "kelurahan": "karya Jaya", "kecamatan": "Kertapati", "sumber_file": "Pengelolaan_Sampah_Sektor_Informal_2022" }, "geometry": { "type": "Point", "coordinates": [ 104.711, -3.04971 ] } },
{ "type": "Feature", "properties": { "tahun": "2022", "periode": "2", "nama_propinsi": "Sumatera Selatan", "nama_dati2": "Kota Palembang", "nama": "Lapak Iwan Nawawi", "jenis": "Lapak", "wilayah": "Non Ibukota Kabupaten", "status": "A", "sampah_diterima_tahun": "149.650000", "jml_kelola_tahun": "149.650000000", "bb_du_tahun": "149.650000", "bb_up_tahun": "0.000000000", "alamat": "Jl. Lebak Mulyo 5", "kelurahan": "Sekip Jaya", "kecamatan": "Kemuning", "sumber_file": "Pengelolaan_Sampah_Sektor_Informal_2022" }, "geometry": { "type": "Point", "coordinates": [ 104.7537424, -2.960528 ] } },
{ "type": "Feature", "properties": { "tahun": "2022", "periode": "2", "nama_propinsi": "Sumatera Selatan", "nama_dati2": "Kota Palembang", "nama": "Lapak Iwan SP Padang", "jenis": "Pengepul", "wilayah": "Non Ibukota Kabupaten", "status": "A", "sampah_diterima_tahun": "131.400000", "jml_kelola_tahun": "131.400000000", "bb_du_tahun": "131.400000", "bb_up_tahun": "0.000000000", "alamat": "Jl. Ario Kemuning 23/18", "kelurahan": "Ario Kemuning", "kecamatan": "Kemuning", "sumber_file": "Pengelolaan_Sampah_Sektor_Informal_2022" }, "geometry": { "type": "Point", "coordinates": [ 104.7441055, -2.988652 ] } },
{ "type": "Feature", "properties": { "tahun": "2022", "periode": "2", "nama_propinsi": "Sumatera Selatan", "nama_dati2": "Kota Palembang", "nama": "Lapak Junaidi", "jenis": "Lapak", "wilayah": "Non Ibukota Kabupaten", "status": "A", "sampah_diterima_tahun": "131.400000", "jml_kelola_tahun": "93.987500000", "bb_du_tahun": "93.987500", "bb_up_tahun": "0.000000000", "alamat": "Jl. Kapten Abdullah ", "kelurahan": "Plaju Darat", "kecamatan": "Plaju", "sumber_file": "Pengelolaan_Sampah_Sektor_Informal_2022" }, "geometry": { "type": "Point", "coordinates": [ 104.8196939, -3.0097171 ] } },
{ "type": "Feature", "properties": { "tahun": "2022", "periode": "2", "nama_propinsi": "Sumatera Selatan", "nama_dati2": "Kota Palembang", "nama": "Lapak Kandang Kawat", "jenis": "Lapak", "wilayah": "Non Ibukota Kabupaten", "status": "A", "sampah_diterima_tahun": "156.950000", "jml_kelola_tahun": "156.950000000", "bb_du_tahun": "156.950000", "bb_up_tahun": "0.000000000", "alamat": "Jl. Bambang Utoyo ", "kelurahan": "Duku", "kecamatan": "Ilir Timur II", "sumber_file": "Pengelolaan_Sampah_Sektor_Informal_2022" }, "geometry": { "type": "Point", "coordinates": [ 104.7742763, -2.9677721 ] } },
{ "type": "Feature", "properties": { "tahun": "2022", "periode": "2", "nama_propinsi": "Sumatera Selatan", "nama_dati2": "Kota Palembang", "nama": "Lapak Kemis", "jenis": "Lapak", "wilayah": "Non Ibukota Kabupaten", "status": "A", "sampah_diterima_tahun": "330.325000", "jml_kelola_tahun": "330.325000000", "bb_du_tahun": "330.325000", "bb_up_tahun": "0.000000000", "alamat": "Perumnas Talang Kelapa Blok 07 31", "kelurahan": "Talang Kelapa", "kecamatan": "Alang Alang Lebar", "sumber_file": "Pengelolaan_Sampah_Sektor_Informal_2022" }, "geometry": { "type": "Point", "coordinates": [ 104.6873211, -2.9383628 ] } },
{ "type": "Feature", "properties": { "tahun": "2022", "periode": "2", "nama_propinsi": "Sumatera Selatan", "nama_dati2": "Kota Palembang", "nama": "Lapak Kodir", "jenis": "Lapak", "wilayah": "Non Ibukota Kabupaten", "status": "A", "sampah_diterima_tahun": "142.350000", "jml_kelola_tahun": "142.350000000", "bb_du_tahun": "142.350000", "bb_up_tahun": "0.000000000", "alamat": "Sukamulya", "kelurahan": "Sukamulya", "kecamatan": "Sematang Borang", "sumber_file": "Pengelolaan_Sampah_Sektor_Informal_2022" }, "geometry": { "type": "Point", "coordinates": [ 104.8308695, -2.943837 ] } },
{ "type": "Feature", "properties": { "tahun": "2022", "periode": "2", "nama_propinsi": "Sumatera Selatan", "nama_dati2": "Kota Palembang", "nama": "Lapak Kunci", "jenis": "Lapak", "wilayah": "Non Ibukota Kabupaten", "status": "A", "sampah_diterima_tahun": "116.800000", "jml_kelola_tahun": "116.800000000", "bb_du_tahun": "116.800000", "bb_up_tahun": "0.000000000", "alamat": "Jl. Sukawinatan ", "kelurahan": "Sukajaya/Sukabang", "kecamatan": "Sukarami", "sumber_file": "Pengelolaan_Sampah_Sektor_Informal_2022" }, "geometry": { "type": "Point", "coordinates": [ 104.7509862, -2.9284298 ] } },
{ "type": "Feature", "properties": { "tahun": "2022", "periode": "2", "nama_propinsi": "Sumatera Selatan", "nama_dati2": "Kota Palembang", "nama": "Lapak Lelek", "jenis": "Lapak", "wilayah": "Ibukota kabupaten/Kota", "status": "A", "sampah_diterima_tahun": "204.400000", "jml_kelola_tahun": "184.325000000", "bb_du_tahun": "184.325000", "bb_up_tahun": "0.000000000", "alamat": "Lebung Gajah", "kelurahan": "Lebung Gajah", "kecamatan": "Sematang Borang", "sumber_file": "Pengelolaan_Sampah_Sektor_Informal_2022" }, "geometry": { "type": "Point", "coordinates": [ 104.7973121, -2.9382404 ] } },
{ "type": "Feature", "properties": { "tahun": "2022", "periode": "2", "nama_propinsi": "Sumatera Selatan", "nama_dati2": "Kota Palembang", "nama": "Lapak Lukman", "jenis": "Lapak", "wilayah": "Non Ibukota Kabupaten", "status": "A", "sampah_diterima_tahun": "109.500000", "jml_kelola_tahun": "109.500000000", "bb_du_tahun": "109.500000", "bb_up_tahun": "0.000000000", "alamat": "Jl. Pangeran Ratu ", "kelurahan": "15 Ulu", "kecamatan": "Seberang Ulu I", "sumber_file": "Pengelolaan_Sampah_Sektor_Informal_2022" }, "geometry": { "type": "Point", "coordinates": [ 104.7754261, -3.0238018 ] } },
{ "type": "Feature", "properties": { "tahun": "2022", "periode": "2", "nama_propinsi": "Sumatera Selatan", "nama_dati2": "Kota Palembang", "nama": "Lapak M. Toha", "jenis": "Lapak", "wilayah": "Non Ibukota Kabupaten", "status": "A", "sampah_diterima_tahun": "235.425000", "jml_kelola_tahun": "235.425000000", "bb_du_tahun": "235.425000", "bb_up_tahun": "0.000000000", "alamat": "Jl. Swadaya ", "kelurahan": "Talang Aman", "kecamatan": "Kemuning", "sumber_file": "Pengelolaan_Sampah_Sektor_Informal_2022" }, "geometry": { "type": "Point", "coordinates": [ 104.7477959, -2.9501916 ] } },
{ "type": "Feature", "properties": { "tahun": "2022", "periode": "2", "nama_propinsi": "Sumatera Selatan", "nama_dati2": "Kota Palembang", "nama": "Lapak Mais", "jenis": "Lapak", "wilayah": "Non Ibukota Kabupaten", "status": "A", "sampah_diterima_tahun": "213.525000", "jml_kelola_tahun": "213.525000000", "bb_du_tahun": "213.525000", "bb_up_tahun": "0.000000000", "alamat": "Jl. Margo ", "kelurahan": "", "kecamatan": "Sukarami", "sumber_file": "Pengelolaan_Sampah_Sektor_Informal_2022" }, "geometry": { "type": "Point", "coordinates": [ 104.7032479, -2.9165355 ] } },
{ "type": "Feature", "properties": { "tahun": "2022", "periode": "2", "nama_propinsi": "Sumatera Selatan", "nama_dati2": "Kota Palembang", "nama": "Lapak Marta", "jenis": "Lapak", "wilayah": "Non Ibukota Kabupaten", "status": "A", "sampah_diterima_tahun": "140.525000", "jml_kelola_tahun": "140.525000000", "bb_du_tahun": "140.525000", "bb_up_tahun": "0.000000000", "alamat": "Jl. Sematang Borang ", "kelurahan": "Sako", "kecamatan": "Sako", "sumber_file": "Pengelolaan_Sampah_Sektor_Informal_2022" }, "geometry": { "type": "Point", "coordinates": [ 104.7968737, -2.9205105 ] } },
{ "type": "Feature", "properties": { "tahun": "2022", "periode": "2", "nama_propinsi": "Sumatera Selatan", "nama_dati2": "Kota Palembang", "nama": "Lapak Muhammad", "jenis": "Lapak", "wilayah": "Non Ibukota Kabupaten", "status": "A", "sampah_diterima_tahun": "109.500000", "jml_kelola_tahun": "109.500000000", "bb_du_tahun": "109.500000", "bb_up_tahun": "0.000000000", "alamat": "TPA I ", "kelurahan": "Sukajaya/Sukabangun", "kecamatan": "Sukarami", "sumber_file": "Pengelolaan_Sampah_Sektor_Informal_2022" }, "geometry": { "type": "Point", "coordinates": [ 104.7371889, -2.9333156 ] } },
{ "type": "Feature", "properties": { "tahun": "2022", "periode": "2", "nama_propinsi": "Sumatera Selatan", "nama_dati2": "Kota Palembang", "nama": "Lapak Mulyadi", "jenis": "Lapak", "wilayah": "Non Ibukota Kabupaten", "status": "A", "sampah_diterima_tahun": "133.955000", "jml_kelola_tahun": "133.955000000", "bb_du_tahun": "133.955000", "bb_up_tahun": "0.000000000", "alamat": "Jl. Sultan Muh. Mansur ", "kelurahan": "Bukit Lama", "kecamatan": "Ilir Barat I", "sumber_file": "Pengelolaan_Sampah_Sektor_Informal_2022" }, "geometry": { "type": "Point", "coordinates": [ 104.7373704, -3.0025234 ] } },
{ "type": "Feature", "properties": { "tahun": "2022", "periode": "2", "nama_propinsi": "Sumatera Selatan", "nama_dati2": "Kota Palembang", "nama": "Lapak Muslim", "jenis": "Lapak", "wilayah": "Non Ibukota Kabupaten", "status": "A", "sampah_diterima_tahun": "277.400000", "jml_kelola_tahun": "277.400000000", "bb_du_tahun": "277.400000", "bb_up_tahun": "0.000000000", "alamat": "Jl. Lettu Karim A. Kadir ", "kelurahan": "Karang Jaya", "kecamatan": "Gandus", "sumber_file": "Pengelolaan_Sampah_Sektor_Informal_2022" }, "geometry": { "type": "Point", "coordinates": [ 104.7059599, -3.0125867 ] } },
{ "type": "Feature", "properties": { "tahun": "2022", "periode": "2", "nama_propinsi": "Sumatera Selatan", "nama_dati2": "Kota Palembang", "nama": "Lapak Nopri", "jenis": "Lapak", "wilayah": "Non Ibukota Kabupaten", "status": "A", "sampah_diterima_tahun": "197.100000", "jml_kelola_tahun": "193.450000000", "bb_du_tahun": "193.450000", "bb_up_tahun": "0.000000000", "alamat": "Jl. Abusamah ", "kelurahan": "Sukajaya/Sukabangun", "kecamatan": "Sukarami", "sumber_file": "Pengelolaan_Sampah_Sektor_Informal_2022" }, "geometry": { "type": "Point", "coordinates": [ 104.7393817, -2.938132 ] } },
{ "type": "Feature", "properties": { "tahun": "2022", "periode": "2", "nama_propinsi": "Sumatera Selatan", "nama_dati2": "Kota Palembang", "nama": "Lapak Norman", "jenis": "Lapak", "wilayah": "Non Ibukota Kabupaten", "status": "A", "sampah_diterima_tahun": "156.950000", "jml_kelola_tahun": "156.950000000", "bb_du_tahun": "156.950000", "bb_up_tahun": "0.000000000", "alamat": "Jl. Sematang borang ", "kelurahan": "Sako", "kecamatan": "Sako", "sumber_file": "Pengelolaan_Sampah_Sektor_Informal_2022" }, "geometry": { "type": "Point", "coordinates": [ 104.7968737, -2.9205105 ] } },
{ "type": "Feature", "properties": { "tahun": "2022", "periode": "2", "nama_propinsi": "Sumatera Selatan", "nama_dati2": "Kota Palembang", "nama": "Lapak Parapat", "jenis": "Lapak", "wilayah": "Non Ibukota Kabupaten", "status": "A", "sampah_diterima_tahun": "131.400000", "jml_kelola_tahun": "131.400000000", "bb_du_tahun": "131.400000", "bb_up_tahun": "0.000000000", "alamat": "Jl. Sematang Borang ", "kelurahan": "Sako", "kecamatan": "Sako", "sumber_file": "Pengelolaan_Sampah_Sektor_Informal_2022" }, "geometry": { "type": "Point", "coordinates": [ 104.7968737, -2.9205105 ] } },
{ "type": "Feature", "properties": { "tahun": "2022", "periode": "2", "nama_propinsi": "Sumatera Selatan", "nama_dati2": "Kota Palembang", "nama": "Lapak Rahmad", "jenis": "Lapak", "wilayah": "Non Ibukota Kabupaten", "status": "A", "sampah_diterima_tahun": "138.700000", "jml_kelola_tahun": "138.700000000", "bb_du_tahun": "138.700000", "bb_up_tahun": "0.000000000", "alamat": "Jl. Slamet Riyadi ", "kelurahan": "", "kecamatan": "Ilir Timur II", "sumber_file": "Pengelolaan_Sampah_Sektor_Informal_2022" }, "geometry": { "type": "Point", "coordinates": [ 104.7724274, -2.9807327 ] } },
{ "type": "Feature", "properties": { "tahun": "2022", "periode": "2", "nama_propinsi": "Sumatera Selatan", "nama_dati2": "Kota Palembang", "nama": "Lapak Rahmat", "jenis": "Lapak", "wilayah": "Non Ibukota Kabupaten", "status": "A", "sampah_diterima_tahun": "120.450000", "jml_kelola_tahun": "120.450000000", "bb_du_tahun": "120.450000", "bb_up_tahun": "0.000000000", "alamat": "Jl. Lebak Murni ", "kelurahan": "", "kecamatan": "Sako", "sumber_file": "Pengelolaan_Sampah_Sektor_Informal_2022" }, "geometry": { "type": "Point", "coordinates": [ 104.7929148, -2.9157498 ] } },
{ "type": "Feature", "properties": { "tahun": "2022", "periode": "2", "nama_propinsi": "Sumatera Selatan", "nama_dati2": "Kota Palembang", "nama": "Lapak Ramali", "jenis": "Lapak", "wilayah": "Non Ibukota Kabupaten", "status": "A", "sampah_diterima_tahun": "131.400000", "jml_kelola_tahun": "131.400000000", "bb_du_tahun": "131.400000", "bb_up_tahun": "0.000000000", "alamat": "Jl. Kol. Sulaiman Amin ", "kelurahan": "Karya Baru", "kecamatan": "Alang Alang Lebar", "sumber_file": "Pengelolaan_Sampah_Sektor_Informal_2022" }, "geometry": { "type": "Point", "coordinates": [ 104.7085462, -2.9425455 ] } },
{ "type": "Feature", "properties": { "tahun": "2022", "periode": "2", "nama_propinsi": "Sumatera Selatan", "nama_dati2": "Kota Palembang", "nama": "Lapak Rhosidi", "jenis": "Lapak", "wilayah": "Non Ibukota Kabupaten", "status": "A", "sampah_diterima_tahun": "62.050000", "jml_kelola_tahun": "62.050000000", "bb_du_tahun": "62.050000", "bb_up_tahun": "0.000000000", "alamat": "Jl. Sosial ", "kelurahan": "Sukajaya/Sukabangun", "kecamatan": "Sukarami", "sumber_file": "Pengelolaan_Sampah_Sektor_Informal_2022" }, "geometry": { "type": "Point", "coordinates": [ 104.7387666, -2.9508403 ] } },
{ "type": "Feature", "properties": { "tahun": "2022", "periode": "2", "nama_propinsi": "Sumatera Selatan", "nama_dati2": "Kota Palembang", "nama": "Lapak Ridwan Fauzi", "jenis": "Lapak", "wilayah": "Non Ibukota Kabupaten", "status": "A", "sampah_diterima_tahun": "118.625000", "jml_kelola_tahun": "118.625000000", "bb_du_tahun": "118.625000", "bb_up_tahun": "0.000000000", "alamat": "Jl. Telaga Swidak ", "kelurahan": "14 ULU", "kecamatan": "Seberang Ulu II", "sumber_file": "Pengelolaan_Sampah_Sektor_Informal_2022" }, "geometry": { "type": "Point", "coordinates": [ 104.7808696, -2.9905357 ] } },
{ "type": "Feature", "properties": { "tahun": "2022", "periode": "2", "nama_propinsi": "Sumatera Selatan", "nama_dati2": "Kota Palembang", "nama": "Lapak Ripin", "jenis": "Lapak", "wilayah": "Non Ibukota Kabupaten", "status": "A", "sampah_diterima_tahun": "177.025000", "jml_kelola_tahun": "177.025000000", "bb_du_tahun": "177.025000", "bb_up_tahun": "0.000000000", "alamat": "Jl. KH. Azhari ", "kelurahan": "14 ULU", "kecamatan": "Seberang Ulu II", "sumber_file": "Pengelolaan_Sampah_Sektor_Informal_2022" }, "geometry": { "type": "Point", "coordinates": [ 104.7788407, -2.987039 ] } },
{ "type": "Feature", "properties": { "tahun": "2022", "periode": "2", "nama_propinsi": "Sumatera Selatan", "nama_dati2": "Kota Palembang", "nama": "Lapak Riski Abdullah", "jenis": "Lapak", "wilayah": "Non Ibukota Kabupaten", "status": "A", "sampah_diterima_tahun": "222.650000", "jml_kelola_tahun": "222.650000000", "bb_du_tahun": "222.650000", "bb_up_tahun": "0.000000000", "alamat": "Jl. Abusamah ", "kelurahan": "Sukajaya/Sukabangun", "kecamatan": "Sukarami", "sumber_file": "Pengelolaan_Sampah_Sektor_Informal_2022" }, "geometry": { "type": "Point", "coordinates": [ 104.7393817, -2.938132 ] } },
{ "type": "Feature", "properties": { "tahun": "2022", "periode": "2", "nama_propinsi": "Sumatera Selatan", "nama_dati2": "Kota Palembang", "nama": "Lapak Rudi", "jenis": "Lapak", "wilayah": "Non Ibukota Kabupaten", "status": "A", "sampah_diterima_tahun": "200.750000", "jml_kelola_tahun": "141.437500000", "bb_du_tahun": "141.437500", "bb_up_tahun": "0.000000000", "alamat": "Jl. KH. Azhari ", "kelurahan": "13 ULU", "kecamatan": "Seberang Ulu II", "sumber_file": "Pengelolaan_Sampah_Sektor_Informal_2022" }, "geometry": { "type": "Point", "coordinates": [ 104.774851, -2.9877618 ] } },
{ "type": "Feature", "properties": { "tahun": "2022", "periode": "2", "nama_propinsi": "Sumatera Selatan", "nama_dati2": "Kota Palembang", "nama": "Lapak Sanuri", "jenis": "Lapak", "wilayah": "Non Ibukota Kabupaten", "status": "A", "sampah_diterima_tahun": "144.175000", "jml_kelola_tahun": "144.175000000", "bb_du_tahun": "144.175000", "bb_up_tahun": "0.000000000", "alamat": "TPA I ", "kelurahan": "Sukajaya/Sukabangun", "kecamatan": "Sukarami", "sumber_file": "Pengelolaan_Sampah_Sektor_Informal_2022" }, "geometry": { "type": "Point", "coordinates": [ 104.7371889, -2.9333156 ] } },
{ "type": "Feature", "properties": { "tahun": "2022", "periode": "2", "nama_propinsi": "Sumatera Selatan", "nama_dati2": "Kota Palembang", "nama": "Lapak Simbolon", "jenis": "Lapak", "wilayah": "Non Ibukota Kabupaten", "status": "A", "sampah_diterima_tahun": "138.700000", "jml_kelola_tahun": "138.700000000", "bb_du_tahun": "138.700000", "bb_up_tahun": "0.000000000", "alamat": "Jl. Sersan ", "kelurahan": "", "kecamatan": "Kemuning", "sumber_file": "Pengelolaan_Sampah_Sektor_Informal_2022" }, "geometry": { "type": "Point", "coordinates": [ 104.7490736, -2.9487969 ] } },
{ "type": "Feature", "properties": { "tahun": "2022", "periode": "2", "nama_propinsi": "Sumatera Selatan", "nama_dati2": "Kota Palembang", "nama": "Lapak Sudirman", "jenis": "Lapak", "wilayah": "Non Ibukota Kabupaten", "status": "A", "sampah_diterima_tahun": "184.325000", "jml_kelola_tahun": "184.325000000", "bb_du_tahun": "184.325000", "bb_up_tahun": "0.000000000", "alamat": "Jl. Robani Kadir Talang Putri ", "kelurahan": "", "kecamatan": "Plaju", "sumber_file": "Pengelolaan_Sampah_Sektor_Informal_2022" }, "geometry": { "type": "Point", "coordinates": [ 104.8218935, -3.0138313 ] } },
{ "type": "Feature", "properties": { "tahun": "2022", "periode": "2", "nama_propinsi": "Sumatera Selatan", "nama_dati2": "Kota Palembang", "nama": "Lapak Suhanda", "jenis": "Lapak", "wilayah": "Non Ibukota Kabupaten", "status": "A", "sampah_diterima_tahun": "114.975000", "jml_kelola_tahun": "114.975000000", "bb_du_tahun": "114.975000", "bb_up_tahun": "0.000000000", "alamat": "Srimulya", "kelurahan": "Srimulya", "kecamatan": "Sematang Borang", "sumber_file": "Pengelolaan_Sampah_Sektor_Informal_2022" }, "geometry": { "type": "Point", "coordinates": [ 104.8075245, -2.9441538 ] } },
{ "type": "Feature", "properties": { "tahun": "2022", "periode": "2", "nama_propinsi": "Sumatera Selatan", "nama_dati2": "Kota Palembang", "nama": "Lapak Sumardon", "jenis": "Lapak", "wilayah": "Non Ibukota Kabupaten", "status": "A", "sampah_diterima_tahun": "108.405000", "jml_kelola_tahun": "108.405000000", "bb_du_tahun": "108.405000", "bb_up_tahun": "0.000000000", "alamat": "jl. Alamsyah Ratu Prawiranegara ", "kelurahan": "Karang Jaya", "kecamatan": "Gandus", "sumber_file": "Pengelolaan_Sampah_Sektor_Informal_2022" }, "geometry": { "type": "Point", "coordinates": [ 104.7230029, -3.0109521 ] } },
{ "type": "Feature", "properties": { "tahun": "2022", "periode": "2", "nama_propinsi": "Sumatera Selatan", "nama_dati2": "Kota Palembang", "nama": "Lapak Suroso", "jenis": "Lapak", "wilayah": "Non Ibukota Kabupaten", "status": "A", "sampah_diterima_tahun": "160.600000", "jml_kelola_tahun": "160.600000000", "bb_du_tahun": "160.600000", "bb_up_tahun": "0.000000000", "alamat": "Jl. Irigasi ", "kelurahan": "", "kecamatan": "Sako", "sumber_file": "Pengelolaan_Sampah_Sektor_Informal_2022" }, "geometry": { "type": "Point", "coordinates": [ 104.7098394, -2.9611263 ] } },
{ "type": "Feature", "properties": { "tahun": "2022", "periode": "2", "nama_propinsi": "Sumatera Selatan", "nama_dati2": "Kota Palembang", "nama": "Lapak Susbini", "jenis": "Lapak", "wilayah": "Non Ibukota Kabupaten", "status": "A", "sampah_diterima_tahun": "178.850000", "jml_kelola_tahun": "178.850000000", "bb_du_tahun": "178.850000", "bb_up_tahun": "0.000000000", "alamat": "Jl. Sematang Borang ", "kelurahan": "Sako", "kecamatan": "Sako", "sumber_file": "Pengelolaan_Sampah_Sektor_Informal_2022" }, "geometry": { "type": "Point", "coordinates": [ 104.7968737, -2.9205105 ] } },
{ "type": "Feature", "properties": { "tahun": "2022", "periode": "2", "nama_propinsi": "Sumatera Selatan", "nama_dati2": "Kota Palembang", "nama": "Lapak Syawal", "jenis": "Lapak", "wilayah": "Non Ibukota Kabupaten", "status": "A", "sampah_diterima_tahun": "118.625000", "jml_kelola_tahun": "118.625000000", "bb_du_tahun": "118.625000", "bb_up_tahun": "0.000000000", "alamat": "Jl. KH Azahari ", "kelurahan": "12 ULU", "kecamatan": "Seberang Ulu II", "sumber_file": "Pengelolaan_Sampah_Sektor_Informal_2022" }, "geometry": { "type": "Point", "coordinates": [ 104.7703191, -2.9902183 ] } },
{ "type": "Feature", "properties": { "tahun": "2022", "periode": "2", "nama_propinsi": "Sumatera Selatan", "nama_dati2": "Kota Palembang", "nama": "Lapak Untung", "jenis": "Lapak", "wilayah": "Non Ibukota Kabupaten", "status": "A", "sampah_diterima_tahun": "104.025000", "jml_kelola_tahun": "104.025000000", "bb_du_tahun": "104.025000", "bb_up_tahun": "0.000000000", "alamat": "Jl. Siaran ", "kelurahan": "Sako", "kecamatan": "Sako", "sumber_file": "Pengelolaan_Sampah_Sektor_Informal_2022" }, "geometry": { "type": "Point", "coordinates": [ 104.7860591, -2.9263494 ] } },
{ "type": "Feature", "properties": { "tahun": "2022", "periode": "2", "nama_propinsi": "Sumatera Selatan", "nama_dati2": "Kota Palembang", "nama": "Lapak Yunus", "jenis": "Lapak", "wilayah": "Non Ibukota Kabupaten", "status": "A", "sampah_diterima_tahun": "113.150000", "jml_kelola_tahun": "113.150000000", "bb_du_tahun": "113.150000", "bb_up_tahun": "0.000000000", "alamat": "Perumnas Talang Kelapa Blok 04 74", "kelurahan": "Talang Kelapa", "kecamatan": "Alang Alang Lebar", "sumber_file": "Pengelolaan_Sampah_Sektor_Informal_2022" }, "geometry": { "type": "Point", "coordinates": [ 104.6848345, -2.9348362 ] } },
{ "type": "Feature", "properties": { "tahun": "2022", "periode": "2", "nama_propinsi": "Sumatera Selatan", "nama_dati2": "Kota Palembang", "nama": "Lapak Zaki", "jenis": "Lapak", "wilayah": "Non Ibukota Kabupaten", "status": "A", "sampah_diterima_tahun": "135.050000", "jml_kelola_tahun": "135.050000000", "bb_du_tahun": "135.050000", "bb_up_tahun": "0.000000000", "alamat": "Jl. A. Rozak Kandang Kawat ", "kelurahan": "Duku", "kecamatan": "Ilir Timur II", "sumber_file": "Pengelolaan_Sampah_Sektor_Informal_2022" }, "geometry": { "type": "Point", "coordinates": [ 104.770145, -2.971448 ] } },
{ "type": "Feature", "properties": { "tahun": "2022", "periode": "2", "nama_propinsi": "Sumatera Selatan", "nama_dati2": "Kota Palembang", "nama": "Leni", "jenis": "Lapak", "wilayah": "Non Ibukota Kabupaten", "status": "A", "sampah_diterima_tahun": "1314.000000", "jml_kelola_tahun": "1314.000000000", "bb_du_tahun": "1314.000000", "bb_up_tahun": "0.000000000", "alamat": "Jl. TPA DLHK Palembang ", "kelurahan": "Sukajaya ", "kecamatan": "Sukarame", "sumber_file": "Pengelolaan_Sampah_Sektor_Informal_2022" }, "geometry": { "type": "Point", "coordinates": [ 104.749138, -2.913744 ] } },
{ "type": "Feature", "properties": { "tahun": "2022", "periode": "2", "nama_propinsi": "Sumatera Selatan", "nama_dati2": "Kota Palembang", "nama": "M. Musa", "jenis": "Lapak", "wilayah": "Non Ibukota Kabupaten", "status": "A", "sampah_diterima_tahun": "222.650000", "jml_kelola_tahun": "222.650000000", "bb_du_tahun": "222.650000", "bb_up_tahun": "0.000000000", "alamat": "Jl. Pelita", "kelurahan": "Sako", "kecamatan": "Sako", "sumber_file": "Pengelolaan_Sampah_Sektor_Informal_2022" }, "geometry": { "type": "Point", "coordinates": [ 104.78737, -2.926715 ] } },
{ "type": "Feature", "properties": { "tahun": "2022", "periode": "2", "nama_propinsi": "Sumatera Selatan", "nama_dati2": "Kota Palembang", "nama": "M. Nuh", "jenis": "Lapak", "wilayah": "Non Ibukota Kabupaten", "status": "A", "sampah_diterima_tahun": "1098.650000", "jml_kelola_tahun": "1098.650000000", "bb_du_tahun": "1098.650000", "bb_up_tahun": "0.000000000", "alamat": "Jl. KH. Wahid Hasyim", "kelurahan": "Lima Ulu", "kecamatan": "Seberang Ulu Satu", "sumber_file": "Pengelolaan_Sampah_Sektor_Informal_2022" }, "geometry": { "type": "Point", "coordinates": [ 104.762074, -3.007217 ] } },
{ "type": "Feature", "properties": { "tahun": "2022", "periode": "2", "nama_propinsi": "Sumatera Selatan", "nama_dati2": "Kota Palembang", "nama": "Maji (Mas Giok)", "jenis": "Pengepul", "wilayah": "Non Ibukota Kabupaten", "status": "A", "sampah_diterima_tahun": "240.900000", "jml_kelola_tahun": "240.900000000", "bb_du_tahun": "240.900000", "bb_up_tahun": "0.000000000", "alamat": "Jl. Seroja", "kelurahan": "Dua Puluh Ilir ", "kecamatan": "Ilir Timur Satu", "sumber_file": "Pengelolaan_Sampah_Sektor_Informal_2022" }, "geometry": { "type": "Point", "coordinates": [ 104.745471, -2.971442 ] } },
{ "type": "Feature", "properties": { "tahun": "2022", "periode": "2", "nama_propinsi": "Sumatera Selatan", "nama_dati2": "Kota Palembang", "nama": "Mariana", "jenis": "Lapak", "wilayah": "Non Ibukota Kabupaten", "status": "A", "sampah_diterima_tahun": "113.150000", "jml_kelola_tahun": "113.150000000", "bb_du_tahun": "113.150000", "bb_up_tahun": "0.000000000", "alamat": "Jl.Sukarela RT.21 RW.07 Kel.Sukarami Kec. Sukarami ", "kelurahan": null, "kecamatan": null, "sumber_file": "Pengelolaan_Sampah_Sektor_Informal_2022" }, "geometry": { "type": "Point", "coordinates": [ 104.7317695, -2.9332018 ] } },
{ "type": "Feature", "properties": { "tahun": "2022", "periode": "2", "nama_propinsi": "Sumatera Selatan", "nama_dati2": "Kota Palembang", "nama": "Medianto Tunggal Atmadja", "jenis": "Pengepul", "wilayah": "Non Ibukota Kabupaten", "status": "A", "sampah_diterima_tahun": "624.150000", "jml_kelola_tahun": "624.150000000", "bb_du_tahun": "624.150000", "bb_up_tahun": "0.000000000", "alamat": "Jl. Bukit Darat (Kebun Semai) No.10 Rt.03 Rw.01 ", "kelurahan": "Sekip Jaya", "kecamatan": "Kemuning", "sumber_file": "Pengelolaan_Sampah_Sektor_Informal_2022" }, "geometry": { "type": "Point", "coordinates": [ 104.759332, -2.968634 ] } },
{ "type": "Feature", "properties": { "tahun": "2022", "periode": "2", "nama_propinsi": "Sumatera Selatan", "nama_dati2": "Kota Palembang", "nama": "Nicholas", "jenis": "Pengepul", "wilayah": "Non Ibukota Kabupaten", "status": "A", "sampah_diterima_tahun": "660.650000", "jml_kelola_tahun": "660.650000000", "bb_du_tahun": "660.650000", "bb_up_tahun": "0.000000000", "alamat": "Jl. Siaran", "kelurahan": "Sako", "kecamatan": "Sako", "sumber_file": "Pengelolaan_Sampah_Sektor_Informal_2022" }, "geometry": { "type": "Point", "coordinates": [ 104.784275, -2.924507 ] } },
{ "type": "Feature", "properties": { "tahun": "2022", "periode": "2", "nama_propinsi": "Sumatera Selatan", "nama_dati2": "Kota Palembang", "nama": "Nurjani", "jenis": "Pengepul", "wilayah": "Non Ibukota Kabupaten", "status": "A", "sampah_diterima_tahun": "328.500000", "jml_kelola_tahun": "328.500000000", "bb_du_tahun": "328.500000", "bb_up_tahun": "0.000000000", "alamat": "Jl. Segaran", "kelurahan": "Lima Belas Ilir", "kecamatan": "Ilir Timur Satu", "sumber_file": "Pengelolaan_Sampah_Sektor_Informal_2022" }, "geometry": { "type": "Point", "coordinates": [ 104.763156, -2.98443 ] } },
{ "type": "Feature", "properties": { "tahun": "2022", "periode": "2", "nama_propinsi": "Sumatera Selatan", "nama_dati2": "Kota Palembang", "nama": "Pauzi A.", "jenis": "Lapak", "wilayah": "Non Ibukota Kabupaten", "status": "A", "sampah_diterima_tahun": "129.575000", "jml_kelola_tahun": "129.575000000", "bb_du_tahun": "129.575000", "bb_up_tahun": "0.000000000", "alamat": "Jl. Telaga Swidak", "kelurahan": "Empat Belas Ulu", "kecamatan": "Seberang Ulu Dua", "sumber_file": "Pengelolaan_Sampah_Sektor_Informal_2022" }, "geometry": { "type": "Point", "coordinates": [ 104.780359, -2.987733 ] } },
{ "type": "Feature", "properties": { "tahun": "2022", "periode": "2", "nama_propinsi": "Sumatera Selatan", "nama_dati2": "Kota Palembang", "nama": "Pendi", "jenis": "Lapak", "wilayah": "Non Ibukota Kabupaten", "status": "A", "sampah_diterima_tahun": "119.720000", "jml_kelola_tahun": "119.720000000", "bb_du_tahun": "119.720000", "bb_up_tahun": "0.000000000", "alamat": "Jl. Maju Bersama II", "kelurahan": "Alang-Alang Lebar", "kecamatan": "Alang-Alang Lebar", "sumber_file": "Pengelolaan_Sampah_Sektor_Informal_2022" }, "geometry": { "type": "Point", "coordinates": [ 104.692313, -2.923875 ] } },
{ "type": "Feature", "properties": { "tahun": "2022", "periode": "2", "nama_propinsi": "Sumatera Selatan", "nama_dati2": "Kota Palembang", "nama": "Pengepu Barang Bekas Sukasari", "jenis": "Pengepul", "wilayah": "Ibukota kabupaten/Kota", "status": "A", "sampah_diterima_tahun": "470.882838", "jml_kelola_tahun": "369.270498886", "bb_du_tahun": "369.270499", "bb_up_tahun": "0.000000000", "alamat": "Jl. Sukasari ", "kelurahan": null, "kecamatan": null, "sumber_file": "Pengelolaan_Sampah_Sektor_Informal_2022" }, "geometry": { "type": "Point", "coordinates": [ 104.7001429, -2.9588148 ] } },
{ "type": "Feature", "properties": { "tahun": "2022", "periode": "2", "nama_propinsi": "Sumatera Selatan", "nama_dati2": "Kota Palembang", "nama": "Pengepul Barang Bekas", "jenis": "Pengepul", "wilayah": "Non Ibukota Kabupaten", "status": "A", "sampah_diterima_tahun": "317.550000", "jml_kelola_tahun": "235.425000000", "bb_du_tahun": "235.425000", "bb_up_tahun": "0.000000000", "alamat": "Jl. Kol Sulaiman Amin ", "kelurahan": null, "kecamatan": null, "sumber_file": "Pengelolaan_Sampah_Sektor_Informal_2022" }, "geometry": { "type": "Point", "coordinates": [ 104.7003008, -2.9496438 ] } },
{ "type": "Feature", "properties": { "tahun": "2022", "periode": "2", "nama_propinsi": "Sumatera Selatan", "nama_dati2": "Kota Palembang", "nama": "Pengepul Barang Bekas I", "jenis": "Pengepul", "wilayah": "Ibukota kabupaten/Kota", "status": "A", "sampah_diterima_tahun": "474.500000", "jml_kelola_tahun": "474.500000000", "bb_du_tahun": "474.500000", "bb_up_tahun": "0.000000000", "alamat": "Jl. Mr. Sudarman Ganda Subrata", "kelurahan": null, "kecamatan": null, "sumber_file": "Pengelolaan_Sampah_Sektor_Informal_2022" }, "geometry": { "type": "Point", "coordinates": [ 104.753365, -2.9312316 ] } },
{ "type": "Feature", "properties": { "tahun": "2022", "periode": "2", "nama_propinsi": "Sumatera Selatan", "nama_dati2": "Kota Palembang", "nama": "Pengepul Barang Bekas II", "jenis": "Pengepul", "wilayah": "Ibukota kabupaten/Kota", "status": "A", "sampah_diterima_tahun": "292.000000", "jml_kelola_tahun": "292.000000000", "bb_du_tahun": "292.000000", "bb_up_tahun": "0.000000000", "alamat": "Jl. RA Busama ", "kelurahan": null, "kecamatan": null, "sumber_file": "Pengelolaan_Sampah_Sektor_Informal_2022" }, "geometry": { "type": "Point", "coordinates": [ 104.7416702, -2.9387684 ] } },
{ "type": "Feature", "properties": { "tahun": "2022", "periode": "2", "nama_propinsi": "Sumatera Selatan", "nama_dati2": "Kota Palembang", "nama": "Pengepul Barang Bekas III", "jenis": "Pengepul", "wilayah": "Ibukota kabupaten/Kota", "status": "A", "sampah_diterima_tahun": "401.500000", "jml_kelola_tahun": "401.500000000", "bb_du_tahun": "401.500000", "bb_up_tahun": "0.000000000", "alamat": "Jl. Kol Sulaiman Amin", "kelurahan": null, "kecamatan": null, "sumber_file": "Pengelolaan_Sampah_Sektor_Informal_2022" }, "geometry": { "type": "Point", "coordinates": [ 104.7210685, -2.9403857 ] } },
{ "type": "Feature", "properties": { "tahun": "2022", "periode": "2", "nama_propinsi": "Sumatera Selatan", "nama_dati2": "Kota Palembang", "nama": "Pengepul Barang Bekas IV", "jenis": "Pengepul", "wilayah": "Ibukota kabupaten/Kota", "status": "A", "sampah_diterima_tahun": "292.000000", "jml_kelola_tahun": "292.000000000", "bb_du_tahun": "292.000000", "bb_up_tahun": "0.000000000", "alamat": "Jl. Sungai Sahang Ujung ", "kelurahan": null, "kecamatan": null, "sumber_file": "Pengelolaan_Sampah_Sektor_Informal_2022" }, "geometry": { "type": "Point", "coordinates": [ 104.7314107, -2.9812184 ] } },
{ "type": "Feature", "properties": { "tahun": "2022", "periode": "2", "nama_propinsi": "Sumatera Selatan", "nama_dati2": "Kota Palembang", "nama": "Pengepul Barang Bekas V", "jenis": "Pengepul", "wilayah": "Ibukota kabupaten/Kota", "status": "A", "sampah_diterima_tahun": "620.500000", "jml_kelola_tahun": "620.500000000", "bb_du_tahun": "620.500000", "bb_up_tahun": "0.000000000", "alamat": "Jl. Panca Usaha", "kelurahan": null, "kecamatan": null, "sumber_file": "Pengelolaan_Sampah_Sektor_Informal_2022" }, "geometry": { "type": "Point", "coordinates": [ 104.7695159, -3.0122784 ] } },
{ "type": "Feature", "properties": { "tahun": "2022", "periode": "2", "nama_propinsi": "Sumatera Selatan", "nama_dati2": "Kota Palembang", "nama": "Pengepul Jemco Plastik", "jenis": "Pengepul", "wilayah": "Non Ibukota Kabupaten", "status": "A", "sampah_diterima_tahun": "1277.500000", "jml_kelola_tahun": "1277.500000000", "bb_du_tahun": "1277.500000", "bb_up_tahun": "0.000000000", "alamat": "Jl. Siaran Sako ", "kelurahan": "Sako", "kecamatan": "Sako", "sumber_file": "Pengelolaan_Sampah_Sektor_Informal_2022" }, "geometry": { "type": "Point", "coordinates": [ 104.78428, -2.924234 ] } },
{ "type": "Feature", "properties": { "tahun": "2022", "periode": "2", "nama_propinsi": "Sumatera Selatan", "nama_dati2": "Kota Palembang", "nama": "Pengepul PD. Abadi", "jenis": "Pengepul", "wilayah": "Non Ibukota Kabupaten", "status": "A", "sampah_diterima_tahun": "916.150000", "jml_kelola_tahun": "916.150000000", "bb_du_tahun": "916.150000", "bb_up_tahun": "0.000000000", "alamat": "Jl. Padat Karya No. 10 Sematang Borang ", "kelurahan": "Sematang Borang", "kecamatan": "Sako", "sumber_file": "Pengelolaan_Sampah_Sektor_Informal_2022" }, "geometry": { "type": "Point", "coordinates": [ 104.80022, -2.947586 ] } },
{ "type": "Feature", "properties": { "tahun": "2022", "periode": "2", "nama_propinsi": "Sumatera Selatan", "nama_dati2": "Kota Palembang", "nama": "Prima ", "jenis": "Pengepul", "wilayah": "Ibukota kabupaten/Kota", "status": "A", "sampah_diterima_tahun": "766.500000", "jml_kelola_tahun": "639.480000000", "bb_du_tahun": "639.480000", "bb_up_tahun": "0.000000000", "alamat": "Jl. Surya Sakti ", "kelurahan": null, "kecamatan": null, "sumber_file": "Pengelolaan_Sampah_Sektor_Informal_2022" }, "geometry": { "type": "Point", "coordinates": [ 104.723004, -2.9278969 ] } },
{ "type": "Feature", "properties": { "tahun": "2022", "periode": "2", "nama_propinsi": "Sumatera Selatan", "nama_dati2": "Kota Palembang", "nama": "Rahman", "jenis": "Pengepul", "wilayah": "Non Ibukota Kabupaten", "status": "A", "sampah_diterima_tahun": "916.150000", "jml_kelola_tahun": "916.150000000", "bb_du_tahun": "916.150000", "bb_up_tahun": "0.000000000", "alamat": "Jl.tanjung II", "kelurahan": "Bukit Baru", "kecamatan": "Ilir Barat Satu", "sumber_file": "Pengelolaan_Sampah_Sektor_Informal_2022" }, "geometry": { "type": "Point", "coordinates": [ 104.352095, -2.637363 ] } },
{ "type": "Feature", "properties": { "tahun": "2022", "periode": "2", "nama_propinsi": "Sumatera Selatan", "nama_dati2": "Kota Palembang", "nama": "Rama", "jenis": "Pengepul", "wilayah": "Non Ibukota Kabupaten", "status": "A", "sampah_diterima_tahun": "169.725000", "jml_kelola_tahun": "169.725000000", "bb_du_tahun": "169.725000", "bb_up_tahun": "0.000000000", "alamat": "Jl. Srijaya", "kelurahan": "Talang Kelapa", "kecamatan": "Alang-Alang Lebar", "sumber_file": "Pengelolaan_Sampah_Sektor_Informal_2022" }, "geometry": { "type": "Point", "coordinates": [ 104.700357, -2.949593 ] } },
{ "type": "Feature", "properties": { "tahun": "2022", "periode": "2", "nama_propinsi": "Sumatera Selatan", "nama_dati2": "Kota Palembang", "nama": "Rita Nurita", "jenis": "Pengepul", "wilayah": "Non Ibukota Kabupaten", "status": "A", "sampah_diterima_tahun": "332.150000", "jml_kelola_tahun": "332.150000000", "bb_du_tahun": "332.150000", "bb_up_tahun": "0.000000000", "alamat": "Jl. Pasundan No. 28", "kelurahan": "Kalidoni", "kecamatan": "Kalidoni", "sumber_file": "Pengelolaan_Sampah_Sektor_Informal_2022" }, "geometry": { "type": "Point", "coordinates": [ 104.798295, -2.955062 ] } },
{ "type": "Feature", "properties": { "tahun": "2022", "periode": "2", "nama_propinsi": "Sumatera Selatan", "nama_dati2": "Kota Palembang", "nama": "Rusdi jaya", "jenis": "Pengepul", "wilayah": "Non Ibukota Kabupaten", "status": "A", "sampah_diterima_tahun": "259.150000", "jml_kelola_tahun": "259.150000000", "bb_du_tahun": "259.150000", "bb_up_tahun": "0.000000000", "alamat": "Srijaya Negara", "kelurahan": "Srijaya Negara", "kecamatan": "Bukit Kecil", "sumber_file": "Pengelolaan_Sampah_Sektor_Informal_2022" }, "geometry": { "type": "Point", "coordinates": [ 104.724642, -2.965935 ] } },
{ "type": "Feature", "properties": { "tahun": "2022", "periode": "2", "nama_propinsi": "Sumatera Selatan", "nama_dati2": "Kota Palembang", "nama": "Saiful", "jenis": "Pengepul", "wilayah": "Non Ibukota Kabupaten", "status": "A", "sampah_diterima_tahun": "313.900000", "jml_kelola_tahun": "313.900000000", "bb_du_tahun": "313.900000", "bb_up_tahun": "0.000000000", "alamat": "Jl. Sayangan Lr. Himalaya", "kelurahan": "Enam Belas Ilir", "kecamatan": "Ilir Timur Satu", "sumber_file": "Pengelolaan_Sampah_Sektor_Informal_2022" }, "geometry": { "type": "Point", "coordinates": [ 104.764931, -2.985532 ] } },
{ "type": "Feature", "properties": { "tahun": "2022", "periode": "2", "nama_propinsi": "Sumatera Selatan", "nama_dati2": "Kota Palembang", "nama": "Sarbini,SH", "jenis": "Lapak", "wilayah": "Non Ibukota Kabupaten", "status": "A", "sampah_diterima_tahun": "113.150000", "jml_kelola_tahun": "113.150000000", "bb_du_tahun": "113.150000", "bb_up_tahun": "0.000000000", "alamat": "Jl. Husin Basri", "kelurahan": "Sukamulya", "kecamatan": "Sematang Borang", "sumber_file": "Pengelolaan_Sampah_Sektor_Informal_2022" }, "geometry": { "type": "Point", "coordinates": [ 104.821607, -2.917597 ] } },
{ "type": "Feature", "properties": { "tahun": "2022", "periode": "2", "nama_propinsi": "Sumatera Selatan", "nama_dati2": "Kota Palembang", "nama": "Siti Nurjanah", "jenis": "Pengepul", "wilayah": "Non Ibukota Kabupaten", "status": "A", "sampah_diterima_tahun": "170.820000", "jml_kelola_tahun": "170.820000000", "bb_du_tahun": "170.820000", "bb_up_tahun": "0.000000000", "alamat": "Jl. Soekarno Hatta", "kelurahan": "Karya Baru", "kecamatan": "Alang-Alang Lebar", "sumber_file": "Pengelolaan_Sampah_Sektor_Informal_2022" }, "geometry": { "type": "Point", "coordinates": [ 104.703842, -2.932865 ] } },
{ "type": "Feature", "properties": { "tahun": "2022", "periode": "2", "nama_propinsi": "Sumatera Selatan", "nama_dati2": "Kota Palembang", "nama": "Sopi", "jenis": "Pengepul", "wilayah": "Non Ibukota Kabupaten", "status": "A", "sampah_diterima_tahun": "1098.650000", "jml_kelola_tahun": "732.737500000", "bb_du_tahun": "732.737500", "bb_up_tahun": "0.000000000", "alamat": "Jl. SH. Wardoyo", "kelurahan": "Tujuh Ulu", "kecamatan": "Seberang Ulu I", "sumber_file": "Pengelolaan_Sampah_Sektor_Informal_2022" }, "geometry": { "type": "Point", "coordinates": [ 104.764809, -3.000346 ] } },
{ "type": "Feature", "properties": { "tahun": "2022", "periode": "2", "nama_propinsi": "Sumatera Selatan", "nama_dati2": "Kota Palembang", "nama": "Surond", "jenis": "Lapak", "wilayah": "Non Ibukota Kabupaten", "status": "A", "sampah_diterima_tahun": "332.150000", "jml_kelola_tahun": "239.987500000", "bb_du_tahun": "239.987500", "bb_up_tahun": "0.000000000", "alamat": "Jl.Tanah Muroh", "kelurahan": "Demang Lebar Daun", "kecamatan": "Ilir Barat Satu", "sumber_file": "Pengelolaan_Sampah_Sektor_Informal_2022" }, "geometry": { "type": "Point", "coordinates": [ 104.72376, -2.97017 ] } },
{ "type": "Feature", "properties": { "tahun": "2022", "periode": "2", "nama_propinsi": "Sumatera Selatan", "nama_dati2": "Kota Palembang", "nama": "Tamrin", "jenis": "Lapak", "wilayah": "Non Ibukota Kabupaten", "status": "A", "sampah_diterima_tahun": "222.650000", "jml_kelola_tahun": "222.650000000", "bb_du_tahun": "222.650000", "bb_up_tahun": "0.000000000", "alamat": "Jl. Seduduk Putih", "kelurahan": "Delapan Ilir", "kecamatan": "ilir timur tiga", "sumber_file": "Pengelolaan_Sampah_Sektor_Informal_2022" }, "geometry": { "type": "Point", "coordinates": [ 104.759427, -2.948216 ] } },
{ "type": "Feature", "properties": { "tahun": "2022", "periode": "2", "nama_propinsi": "Sumatera Selatan", "nama_dati2": "Kota Palembang", "nama": "Triganda", "jenis": "Pengepul", "wilayah": "Non Ibukota Kabupaten", "status": "A", "sampah_diterima_tahun": "332.150000", "jml_kelola_tahun": "332.150000000", "bb_du_tahun": "332.150000", "bb_up_tahun": "0.000000000", "alamat": "Jl. Padat Karya RT 04/RW 01", "kelurahan": "Talang Jambe", "kecamatan": "Sukarame", "sumber_file": "Pengelolaan_Sampah_Sektor_Informal_2022" }, "geometry": { "type": "Point", "coordinates": [ 104.8023655, -2.9403624 ] } },
{ "type": "Feature", "properties": { "tahun": "2022", "periode": "2", "nama_propinsi": "Sumatera Selatan", "nama_dati2": "Kota Palembang", "nama": "Yanto", "jenis": "Lapak", "wilayah": "Non Ibukota Kabupaten", "status": "A", "sampah_diterima_tahun": "952.650000", "jml_kelola_tahun": "952.650000000", "bb_du_tahun": "952.650000", "bb_up_tahun": "0.000000000", "alamat": "Jl. KH. Wahid Hasyim", "kelurahan": "Lima Ulu", "kecamatan": "Seberang Ulu Satu", "sumber_file": "Pengelolaan_Sampah_Sektor_Informal_2022" }, "geometry": { "type": "Point", "coordinates": [ 104.762523, -3.006471 ] } },
{ "type": "Feature", "properties": { "tahun": "2022", "periode": "2", "nama_propinsi": "Sumatera Selatan", "nama_dati2": "Kota Palembang", "nama": "Yopan", "jenis": "Pengepul", "wilayah": "Non Ibukota Kabupaten", "status": "A", "sampah_diterima_tahun": "105.850000", "jml_kelola_tahun": "105.850000000", "bb_du_tahun": "105.850000", "bb_up_tahun": "0.000000000", "alamat": "Jl. A. Rozak Lr. Amal", "kelurahan": "Kalidoni", "kecamatan": "Kalidoni", "sumber_file": "Pengelolaan_Sampah_Sektor_Informal_2022" }, "geometry": { "type": "Point", "coordinates": [ 104.787988, -2.955479 ] } },
{ "type": "Feature", "properties": { "tahun": "2022", "periode": "2", "nama_propinsi": "Sumatera Selatan", "nama_dati2": "Kota Palembang", "nama": "Yusron", "jenis": "Lapak", "wilayah": "Non Ibukota Kabupaten", "status": "A", "sampah_diterima_tahun": "200.750000", "jml_kelola_tahun": "200.750000000", "bb_du_tahun": "200.750000", "bb_up_tahun": "0.000000000", "alamat": "Jl. Sialang", "kelurahan": "Sialang", "kecamatan": "Sako", "sumber_file": "Pengelolaan_Sampah_Sektor_Informal_2022" }, "geometry": { "type": "Point", "coordinates": [ 104.786597, -2.929322 ] } },
{ "type": "Feature", "properties": { "tahun": "2022", "periode": "2", "nama_propinsi": "Sumatera Selatan", "nama_dati2": "Kota Palembang", "nama": "Zainal", "jenis": "Lapak", "wilayah": "Non Ibukota Kabupaten", "status": "A", "sampah_diterima_tahun": "821.250000", "jml_kelola_tahun": "821.250000000", "bb_du_tahun": "821.250000", "bb_up_tahun": "0.000000000", "alamat": "Jl. Mayjen Ryacudu", "kelurahan": "Tujuh Ulu", "kecamatan": "Seberang Ulu Satu", "sumber_file": "Pengelolaan_Sampah_Sektor_Informal_2022" }, "geometry": { "type": "Point", "coordinates": [ 104.767886, -2.998821 ] } },
{ "type": "Feature", "properties": { "tahun": "2022", "periode": "2", "nama_propinsi": "Sumatera Selatan", "nama_dati2": "Kota Palembang", "nama": "Zulkarnain", "jenis": "Lapak", "wilayah": "Non Ibukota Kabupaten", "status": "A", "sampah_diterima_tahun": "2430.900000", "jml_kelola_tahun": "240.900000000", "bb_du_tahun": "240.900000", "bb_up_tahun": "0.000000000", "alamat": "Jl.Bering Raya", "kelurahan": "Sembilan Ilir", "kecamatan": "ilir timur tiga", "sumber_file": "Pengelolaan_Sampah_Sektor_Informal_2022" }, "geometry": { "type": "Point", "coordinates": [ 104.762209, -2.955899 ] } }
]
}
